{
"type": "FeatureCollection",
"name": "points",
"crs": { "type": "name", "properties": { "name": "urn:ogc:def:crs:OGC:1.3:CRS84" } },
"features": [
{ "type": "Feature", "properties": { "point_id": "P0001", "lat": 41.47251, "lon": 69.42229, "region_id": "KAZ018", "district_id": "KAZ018009", "locality": "Сарыагаш", "zone": "Аридная / Жаркая", "zone_spatial": "Полуаридная / Жаркая", "zone_mismatch": true, "habitat": "Агроценоз (посев люцерны)", "species_count": 5, "total_abundance": 38, "dominant_species_id": "SP012", "dominance_pct": 31.579, "is_estimated": false, "district_mismatch": false, "district_id_declared": "KAZ018009" }, "geometry": { "type": "Point", "coordinates": [ 69.42229, 41.47251 ] } },
{ "type": "Feature", "properties": { "point_id": "P0002", "lat": 41.934168, "lon": 68.066735, "region_id": "KAZ018", "district_id": "KAZ018011", "locality": "Сюткент", "zone": "Аридная / Жаркая", "zone_spatial": "Аридная / Жаркая", "zone_mismatch": false, "habitat": "Агроценоз (посев кукурузы)", "species_count": 5, "total_abundance": 60, "dominant_species_id": "SP012", "dominance_pct": 46.667, "is_estimated": false, "district_mismatch": false, "district_id_declared": "KAZ018011" }, "geometry": { "type": "Point", "coordinates": [ 68.066735, 41.934168 ] } },
{ "type": "Feature", "properties": { "point_id": "P0003", "lat": 42.20622, "lon": 69.8825, "region_id": "KAZ018", "district_id": "KAZ018013", "locality": "Ленгер", "zone": "Аридная / Жаркая", "zone_spatial": "Горная Ю", "zone_mismatch": true, "habitat": "Разнотравная степь", "species_count": 4, "total_abundance": 52, "dominant_species_id": "SP012", "dominance_pct": 46.154, "is_estimated": false, "district_mismatch": false, "district_id_declared": "KAZ018013" }, "geometry": { "type": "Point", "coordinates": [ 69.8825, 42.20622 ] } },
{ "type": "Feature", "properties": { "point_id": "P0004", "lat": 42.400236, "lon": 68.745767, "region_id": "KAZ018", "district_id": "KAZ018001", "locality": "Арысь", "zone": "Аридная / Жаркая", "zone_spatial": "Аридная / Жаркая", "zone_mismatch": false, "habitat": "Полынно-злаковая степь", "species_count": 7, "total_abundance": 68, "dominant_species_id": "SP011", "dominance_pct": 41.176, "is_estimated": false, "district_mismatch": false, "district_id_declared": "KAZ018001" }, "geometry": { "type": "Point", "coordinates": [ 68.745767, 42.400236 ] } },
{ "type": "Feature", "properties": { "point_id": "P0005", "lat": 42.443112, "lon": 69.002381, "region_id": "KAZ018", "district_id": "KAZ018007", "locality": "Ақжол", "zone": "Аридная / Жаркая", "zone_spatial": "Полуаридная / Жаркая", "zone_mismatch": true, "habitat": "Агроценоз (посев люцерны)", "species_count": 9, "total_abundance": 168, "dominant_species_id": "SP066", "dominance_pct": 33.333, "is_estimated": false, "district_mismatch": false, "district_id_declared": "KAZ018007" }, "geometry": { "type": "Point", "coordinates": [ 69.002381, 42.443112 ] } },
{ "type": "Feature", "properties": { "point_id": "P0006", "lat": 42.480016, "lon": 69.924244, "region_id": "KAZ018", "district_id": "KAZ018010", "locality": "Жібек Жолы", "zone": "Полуаридная / Жаркая", "zone_spatial": "Увлажнённая / Жаркая", "zone_mismatch": true, "habitat": "Агроценоз (посев пшеницы)", "species_count": 7, "total_abundance": 76, "dominant_species_id": "SP011", "dominance_pct": 36.842, "is_estimated": false, "district_mismatch": false, "district_id_declared": "KAZ018010" }, "geometry": { "type": "Point", "coordinates": [ 69.924244, 42.480016 ] } },
{ "type": "Feature", "properties": { "point_id": "P0007", "lat": 42.697006, "lon": 70.83892, "region_id": "KAZ009", "district_id": "KAZ009011", "locality": "Бурнооктябрьское", "zone": "Аридная / Жаркая", "zone_spatial": "Полуаридная / Жаркая", "zone_mismatch": true, "habitat": "Типчаково-полынная степь", "species_count": 9, "total_abundance": 172, "dominant_species_id": "SP056", "dominance_pct": 30.233, "is_estimated": true, "district_mismatch": false, "district_id_declared": "KAZ009011" }, "geometry": { "type": "Point", "coordinates": [ 70.83892, 42.697006 ] } },
{ "type": "Feature", "properties": { "point_id": "P0008", "lat": 42.81515, "lon": 68.36938, "region_id": "KAZ018", "district_id": "KAZ018008", "locality": "Шаульдер", "zone": "Аридная / Жаркая", "zone_spatial": "Аридная / Жаркая", "zone_mismatch": false, "habitat": "Агроценоз (посев кукурузы)", "species_count": 4, "total_abundance": 52, "dominant_species_id": "SP050", "dominance_pct": 46.154, "is_estimated": false, "district_mismatch": false, "district_id_declared": "KAZ018008" }, "geometry": { "type": "Point", "coordinates": [ 68.36938, 42.81515 ] } },
{ "type": "Feature", "properties": { "point_id": "P0009", "lat": 42.820991, "lon": 71.139348, "region_id": "KAZ009", "district_id": "KAZ009010", "locality": "Тараз", "zone": "Аридная / Жаркая", "zone_spatial": "Полуаридная / Жаркая", "zone_mismatch": true, "habitat": "Разнотравная степь", "species_count": 9, "total_abundance": 160, "dominant_species_id": "SP063", "dominance_pct": 27.5, "is_estimated": false, "district_mismatch": true, "district_id_declared": "KAZ009008" }, "geometry": { "type": "Point", "coordinates": [ 71.139348, 42.820991 ] } },
{ "type": "Feature", "properties": { "point_id": "P0010", "lat": 42.969886, "lon": 67.530072, "region_id": "KAZ018", "district_id": "KAZ018008", "locality": "Жауқашты", "zone": "Аридная / Жаркая", "zone_spatial": "Аридная / Жаркая", "zone_mismatch": false, "habitat": "Полынная степь", "species_count": 7, "total_abundance": 96, "dominant_species_id": "SP011", "dominance_pct": 54.167, "is_estimated": false, "district_mismatch": true, "district_id_declared": "KAZ009001" }, "geometry": { "type": "Point", "coordinates": [ 67.530072, 42.969886 ] } },
{ "type": "Feature", "properties": { "point_id": "P0011", "lat": 43.06385, "lon": 69.40099, "region_id": "KAZ018", "district_id": "KAZ018002", "locality": "Шаян", "zone": "Аридная / Жаркая", "zone_spatial": "Полуаридная / Жаркая", "zone_mismatch": true, "habitat": "Разнотравная степь", "species_count": 6, "total_abundance": 80, "dominant_species_id": "SP021", "dominance_pct": 30.0, "is_estimated": false, "district_mismatch": false, "district_id_declared": "KAZ018002" }, "geometry": { "type": "Point", "coordinates": [ 69.40099, 43.06385 ] } },
{ "type": "Feature", "properties": { "point_id": "P0012", "lat": 43.167772, "lon": 76.521218, "region_id": "KAZ005", "district_id": "KAZ005004", "locality": "Таскын", "zone": "Полуаридная / Жаркая", "zone_spatial": "Горная ЮВ", "zone_mismatch": true, "habitat": "Злаковая степь", "species_count": 7, "total_abundance": 72, "dominant_species_id": "SP071", "dominance_pct": 50.0, "is_estimated": false, "district_mismatch": false, "district_id_declared": "KAZ005004" }, "geometry": { "type": "Point", "coordinates": [ 76.521218, 43.167772 ] } },
{ "type": "Feature", "properties": { "point_id": "P0013", "lat": 43.17545, "lon": 51.807497, "region_id": "KAZ014", "district_id": "KAZ014003", "locality": "Курык", "zone": "Аридная / Жаркая", "zone_spatial": "Аридная / Жаркая", "zone_mismatch": false, "habitat": "Луговая степь (разнотравье)", "species_count": 1, "total_abundance": 20, "dominant_species_id": "SP011", "dominance_pct": 100.0, "is_estimated": false, "district_mismatch": false, "district_id_declared": "KAZ014003" }, "geometry": { "type": "Point", "coordinates": [ 51.807497, 43.17545 ] } },
{ "type": "Feature", "properties": { "point_id": "P0014", "lat": 43.197404, "lon": 76.379614, "region_id": "KAZ005", "district_id": "KAZ005010", "locality": "Шолак-Каргалы", "zone": "Полуаридная / Жаркая", "zone_spatial": "Полуаридная / Жаркая", "zone_mismatch": false, "habitat": "Разнотравная степь", "species_count": 5, "total_abundance": 80, "dominant_species_id": "SP071", "dominance_pct": 40.0, "is_estimated": false, "district_mismatch": false, "district_id_declared": "KAZ005010" }, "geometry": { "type": "Point", "coordinates": [ 76.379614, 43.197404 ] } },
{ "type": "Feature", "properties": { "point_id": "P0015", "lat": 43.458823, "lon": 69.431312, "region_id": "KAZ018", "district_id": "KAZ018012", "locality": "Сауранбай", "zone": "Аридная / Жаркая", "zone_spatial": "Аридная / Жаркая", "zone_mismatch": false, "habitat": "Разнотравная степь", "species_count": 8, "total_abundance": 64, "dominant_species_id": "SP011", "dominance_pct": 43.75, "is_estimated": false, "district_mismatch": false, "district_id_declared": "KAZ018012" }, "geometry": { "type": "Point", "coordinates": [ 69.431312, 43.458823 ] } },
{ "type": "Feature", "properties": { "point_id": "P0016", "lat": 43.48561, "lon": 77.084863, "region_id": "KAZ005", "district_id": "KAZ005008", "locality": "Кайнар", "zone": "Полуаридная / Жаркая", "zone_spatial": "Полуаридная / Жаркая", "zone_mismatch": false, "habitat": "Разнотравная степь", "species_count": 6, "total_abundance": 116, "dominant_species_id": "SP071", "dominance_pct": 51.724, "is_estimated": false, "district_mismatch": false, "district_id_declared": "KAZ005008" }, "geometry": { "type": "Point", "coordinates": [ 77.084863, 43.48561 ] } },
{ "type": "Feature", "properties": { "point_id": "P0017", "lat": 43.488324, "lon": 67.864563, "region_id": "KAZ018", "district_id": "KAZ018005", "locality": "Разъезд Номер Тридцать", "zone": "Аридная / Жаркая", "zone_spatial": "Полуаридная / Жаркая", "zone_mismatch": true, "habitat": "Агроценоз (посев люцерны)", "species_count": 8, "total_abundance": 176, "dominant_species_id": "SP011", "dominance_pct": 40.909, "is_estimated": false, "district_mismatch": false, "district_id_declared": "KAZ018005" }, "geometry": { "type": "Point", "coordinates": [ 67.864563, 43.488324 ] } },
{ "type": "Feature", "properties": { "point_id": "P0018", "lat": 43.728089, "lon": 51.329754, "region_id": "KAZ014", "district_id": "KAZ014005", "locality": "Мангистау", "zone": "Аридная / Жаркая", "zone_spatial": "Аридная / Жаркая", "zone_mismatch": false, "habitat": "Полынно-злаковая степь", "species_count": 1, "total_abundance": 8, "dominant_species_id": "SP011", "dominance_pct": 100.0, "is_estimated": false, "district_mismatch": false, "district_id_declared": "KAZ014005" }, "geometry": { "type": "Point", "coordinates": [ 51.329754, 43.728089 ] } },
{ "type": "Feature", "properties": { "point_id": "P0019", "lat": 43.72809, "lon": 51.329754, "region_id": "KAZ014", "district_id": "KAZ014005", "locality": "Мангистау", "zone": "Аридная / Жаркая", "zone_spatial": "Аридная / Жаркая", "zone_mismatch": false, "habitat": "Полынно-злаковая степь", "species_count": 1, "total_abundance": 12, "dominant_species_id": "SP065", "dominance_pct": 100.0, "is_estimated": false, "district_mismatch": false, "district_id_declared": "KAZ014005" }, "geometry": { "type": "Point", "coordinates": [ 51.329754, 43.72809 ] } },
{ "type": "Feature", "properties": { "point_id": "P0020", "lat": 43.826273, "lon": 71.830761, "region_id": "KAZ009", "district_id": "KAZ009011", "locality": "Джувалинский Штаб", "zone": "Аридная / Жаркая", "zone_spatial": "Полуаридная / Жаркая", "zone_mismatch": true, "habitat": "Разнотравная степь", "species_count": 5, "total_abundance": 76, "dominant_species_id": "SP011", "dominance_pct": 47.368, "is_estimated": false, "district_mismatch": true, "district_id_declared": "KAZ009010" }, "geometry": { "type": "Point", "coordinates": [ 71.830761, 43.826273 ] } },
{ "type": "Feature", "properties": { "point_id": "P0021", "lat": 43.964823, "lon": 76.294165, "region_id": "KAZ005", "district_id": "KAZ005003", "locality": "Акший", "zone": "Аридная / Жаркая", "zone_spatial": "Полуаридная / Жаркая", "zone_mismatch": true, "habitat": "Полынно-злаковая степь", "species_count": 10, "total_abundance": 144, "dominant_species_id": "SP023", "dominance_pct": 36.111, "is_estimated": false, "district_mismatch": false, "district_id_declared": "KAZ005003" }, "geometry": { "type": "Point", "coordinates": [ 76.294165, 43.964823 ] } },
{ "type": "Feature", "properties": { "point_id": "P0022", "lat": 44.00922, "lon": 67.22025, "region_id": "KAZ013", "district_id": "KAZ013009", "locality": "Жанакорган", "zone": "Аридная / Жаркая", "zone_spatial": "Аридная / Жаркая", "zone_mismatch": false, "habitat": "Полынная степь", "species_count": 5, "total_abundance": 60, "dominant_species_id": "SP012", "dominance_pct": 66.667, "is_estimated": false, "district_mismatch": false, "district_id_declared": "KAZ013009" }, "geometry": { "type": "Point", "coordinates": [ 67.22025, 44.00922 ] } },
{ "type": "Feature", "properties": { "point_id": "P0023", "lat": 44.202112, "lon": 66.834132, "region_id": "KAZ013", "district_id": "KAZ013006", "locality": "Енбекши", "zone": "Аридная / Жаркая", "zone_spatial": "Аридная / Жаркая", "zone_mismatch": false, "habitat": "Агроценоз (посев люцерны)", "species_count": 7, "total_abundance": 104, "dominant_species_id": "SP043", "dominance_pct": 30.769, "is_estimated": false, "district_mismatch": false, "district_id_declared": "KAZ013006" }, "geometry": { "type": "Point", "coordinates": [ 66.834132, 44.202112 ] } },
{ "type": "Feature", "properties": { "point_id": "P0024", "lat": 44.299065, "lon": 50.45447, "region_id": "KAZ014", "district_id": "KAZ014006", "locality": "Кызыл-Узень", "zone": "Увлажнённая / Умеренно тёплая", "zone_spatial": "Аридная / Жаркая", "zone_mismatch": true, "habitat": "Луговая степь (разнотравье)", "species_count": 2, "total_abundance": 20, "dominant_species_id": "SP011", "dominance_pct": 80.0, "is_estimated": false, "district_mismatch": false, "district_id_declared": "KAZ014006" }, "geometry": { "type": "Point", "coordinates": [ 50.45447, 44.299065 ] } },
{ "type": "Feature", "properties": { "point_id": "P0025", "lat": 44.582253, "lon": 76.697212, "region_id": "KAZ005", "district_id": "KAZ005001", "locality": "Акжар", "zone": "Аридная / Жаркая", "zone_spatial": "Аридная / Жаркая", "zone_mismatch": false, "habitat": "Кустарниково-древесная растительность речных пойм", "species_count": 7, "total_abundance": 88, "dominant_species_id": "SP011", "dominance_pct": 59.091, "is_estimated": false, "district_mismatch": false, "district_id_declared": "KAZ005001" }, "geometry": { "type": "Point", "coordinates": [ 76.697212, 44.582253 ] } },
{ "type": "Feature", "properties": { "point_id": "P0026", "lat": 45.09739, "lon": 64.64657, "region_id": "KAZ013", "district_id": "KAZ013008", "locality": "Жалагаш", "zone": "Аридная / Жаркая", "zone_spatial": "Аридная / Жаркая", "zone_mismatch": false, "habitat": "Кустарниково-древесная растительность речных пойм", "species_count": 3, "total_abundance": 80, "dominant_species_id": "SP012", "dominance_pct": 80.0, "is_estimated": false, "district_mismatch": false, "district_id_declared": "KAZ013008" }, "geometry": { "type": "Point", "coordinates": [ 64.64657, 45.09739 ] } },
{ "type": "Feature", "properties": { "point_id": "P0027", "lat": 45.10654, "lon": 64.21925, "region_id": "KAZ013", "district_id": "KAZ013003", "locality": "село Ақтөбе", "zone": "Аридная / Жаркая", "zone_spatial": "Аридная / Жаркая", "zone_mismatch": false, "habitat": "Агроценоз (посев люцерны) и полынная степь", "species_count": 3, "total_abundance": 56, "dominant_species_id": "SP012", "dominance_pct": 85.714, "is_estimated": false, "district_mismatch": false, "district_id_declared": "KAZ013003" }, "geometry": { "type": "Point", "coordinates": [ 64.21925, 45.10654 ] } },
{ "type": "Feature", "properties": { "point_id": "P0028", "lat": 45.137838, "lon": 77.944943, "region_id": "KAZ010", "district_id": "KAZ010004", "locality": "Айдар", "zone": "Аридная / Жаркая", "zone_spatial": "Аридная / Жаркая", "zone_mismatch": false, "habitat": "Разнотравная степь", "species_count": 11, "total_abundance": 160, "dominant_species_id": "SP013", "dominance_pct": 27.5, "is_estimated": false, "district_mismatch": false, "district_id_declared": "KAZ010004" }, "geometry": { "type": "Point", "coordinates": [ 77.944943, 45.137838 ] } },
{ "type": "Feature", "properties": { "point_id": "P0029", "lat": 45.239732, "lon": 77.994932, "region_id": "KAZ010", "district_id": "KAZ010004", "locality": "Уштобе", "zone": "Аридная / Жаркая", "zone_spatial": "Аридная / Жаркая", "zone_mismatch": false, "habitat": "Злаково-разнотравная степь", "species_count": 10, "total_abundance": 176, "dominant_species_id": "SP049", "dominance_pct": 34.091, "is_estimated": false, "district_mismatch": false, "district_id_declared": "KAZ010004" }, "geometry": { "type": "Point", "coordinates": [ 77.994932, 45.239732 ] } },
{ "type": "Feature", "properties": { "point_id": "P0030", "lat": 45.312691, "lon": 55.39523, "region_id": "KAZ014", "district_id": "KAZ014002", "locality": "Бейнеу", "zone": "Аридная / Жаркая", "zone_spatial": "Аридная / Жаркая", "zone_mismatch": false, "habitat": "Злаковая степь", "species_count": 2, "total_abundance": 24, "dominant_species_id": "SP011", "dominance_pct": 83.333, "is_estimated": true, "district_mismatch": false, "district_id_declared": "KAZ014002" }, "geometry": { "type": "Point", "coordinates": [ 55.39523, 45.312691 ] } },
{ "type": "Feature", "properties": { "point_id": "P0031", "lat": 45.511602, "lon": 72.239329, "region_id": "KAZ009", "district_id": "KAZ009004", "locality": "Тюкен", "zone": "Полуаридная / Тёплая", "zone_spatial": "Аридная / Жаркая", "zone_mismatch": true, "habitat": "Разнотравная степь", "species_count": 7, "total_abundance": 92, "dominant_species_id": "SP052", "dominance_pct": 34.783, "is_estimated": false, "district_mismatch": true, "district_id_declared": "KAZ009007" }, "geometry": { "type": "Point", "coordinates": [ 72.239329, 45.511602 ] } },
{ "type": "Feature", "properties": { "point_id": "P0032", "lat": 45.60495, "lon": 63.936621, "region_id": "KAZ013", "district_id": "KAZ013003", "locality": "Разъезд Номер Сто Семь-А", "zone": "Аридная / Тёплая", "zone_spatial": "Аридная / Жаркая", "zone_mismatch": true, "habitat": "Агроценоз (посев люцерны) и полынная степь", "species_count": 7, "total_abundance": 68, "dominant_species_id": "SP011", "dominance_pct": 35.294, "is_estimated": false, "district_mismatch": false, "district_id_declared": "KAZ013003" }, "geometry": { "type": "Point", "coordinates": [ 63.936621, 45.60495 ] } },
{ "type": "Feature", "properties": { "point_id": "P0033", "lat": 45.99139, "lon": 62.12676, "region_id": "KAZ013", "district_id": "KAZ013004", "locality": "Қазалы", "zone": "Аридная / Тёплая", "zone_spatial": "Аридная / Жаркая", "zone_mismatch": true, "habitat": "Кустарниково-древесная растительность речных пойм", "species_count": 5, "total_abundance": 40, "dominant_species_id": "SP012", "dominance_pct": 50.0, "is_estimated": false, "district_mismatch": false, "district_id_declared": "KAZ013004" }, "geometry": { "type": "Point", "coordinates": [ 62.12676, 45.99139 ] } },
{ "type": "Feature", "properties": { "point_id": "P0034", "lat": 46.782819, "lon": 50.108777, "region_id": "KAZ007", "district_id": "KAZ007003", "locality": "Исатай", "zone": "Аридная / Жаркая", "zone_spatial": "Аридная / Жаркая", "zone_mismatch": false, "habitat": "Полынно-ковыльная степь", "species_count": 3, "total_abundance": 92, "dominant_species_id": "SP011", "dominance_pct": 86.957, "is_estimated": true, "district_mismatch": false, "district_id_declared": "KAZ007003" }, "geometry": { "type": "Point", "coordinates": [ 50.108777, 46.782819 ] } },
{ "type": "Feature", "properties": { "point_id": "P0035", "lat": 46.82679, "lon": 54.148402, "region_id": "KAZ007", "district_id": "KAZ007008", "locality": "Кульсары", "zone": "Аридная / Жаркая", "zone_spatial": "Аридная / Жаркая", "zone_mismatch": false, "habitat": "Разнотравная степь", "species_count": 1, "total_abundance": 20, "dominant_species_id": "SP011", "dominance_pct": 100.0, "is_estimated": true, "district_mismatch": false, "district_id_declared": "KAZ007008" }, "geometry": { "type": "Point", "coordinates": [ 54.148402, 46.82679 ] } },
{ "type": "Feature", "properties": { "point_id": "P0036", "lat": 46.826791, "lon": 54.148403, "region_id": "KAZ007", "district_id": "KAZ007008", "locality": "Кульсары", "zone": "Аридная / Жаркая", "zone_spatial": "Аридная / Жаркая", "zone_mismatch": false, "habitat": "Разнотравная степь", "species_count": 1, "total_abundance": 12, "dominant_species_id": "SP053", "dominance_pct": 100.0, "is_estimated": true, "district_mismatch": false, "district_id_declared": "KAZ007008" }, "geometry": { "type": "Point", "coordinates": [ 54.148403, 46.826791 ] } },
{ "type": "Feature", "properties": { "point_id": "P0037", "lat": 46.826792, "lon": 54.148404, "region_id": "KAZ007", "district_id": "KAZ007008", "locality": "Кульсары", "zone": "Аридная / Жаркая", "zone_spatial": "Аридная / Жаркая", "zone_mismatch": false, "habitat": "Разнотравная степь", "species_count": 1, "total_abundance": 12, "dominant_species_id": "SP018", "dominance_pct": 100.0, "is_estimated": true, "district_mismatch": false, "district_id_declared": "KAZ007008" }, "geometry": { "type": "Point", "coordinates": [ 54.148404, 46.826792 ] } },
{ "type": "Feature", "properties": { "point_id": "P0038", "lat": 47.715864, "lon": 67.842485, "region_id": "KAZ019", "district_id": "KAZ019001", "locality": "Жезгазган", "zone": "Полуаридная / Тёплая", "zone_spatial": "Полуаридная / Тёплая", "zone_mismatch": false, "habitat": "Рудеральный (придорожный, разнотравный)", "species_count": 5, "total_abundance": 72, "dominant_species_id": "SP011", "dominance_pct": 61.111, "is_estimated": true, "district_mismatch": false, "district_id_declared": "KAZ019001" }, "geometry": { "type": "Point", "coordinates": [ 67.842485, 47.715864 ] } },
{ "type": "Feature", "properties": { "point_id": "P0039", "lat": 47.784375, "lon": 51.426517, "region_id": "KAZ007", "district_id": "KAZ007002", "locality": "Махамбет", "zone": "Аридная / Тёплая", "zone_spatial": "Аридная / Тёплая", "zone_mismatch": false, "habitat": "Полынно-ковыльная степь", "species_count": 5, "total_abundance": 112, "dominant_species_id": "SP011", "dominance_pct": 42.857, "is_estimated": false, "district_mismatch": true, "district_id_declared": "KAZ007007" }, "geometry": { "type": "Point", "coordinates": [ 51.426517, 47.784375 ] } },
{ "type": "Feature", "properties": { "point_id": "P0040", "lat": 47.96655, "lon": 67.530421, "region_id": "KAZ019", "district_id": "KAZ019003", "locality": "Сатпаев", "zone": "Полуаридная / Тёплая", "zone_spatial": "Полуаридная / Тёплая", "zone_mismatch": false, "habitat": "Разнотравная степь", "species_count": 1, "total_abundance": 32, "dominant_species_id": "SP011", "dominance_pct": 100.0, "is_estimated": true, "district_mismatch": false, "district_id_declared": "KAZ019003" }, "geometry": { "type": "Point", "coordinates": [ 67.530421, 47.96655 ] } },
{ "type": "Feature", "properties": { "point_id": "P0041", "lat": 47.966551, "lon": 67.530422, "region_id": "KAZ019", "district_id": "KAZ019003", "locality": "Сатпаев", "zone": "Полуаридная / Тёплая", "zone_spatial": "Полуаридная / Тёплая", "zone_mismatch": false, "habitat": "Разнотравная степь", "species_count": 1, "total_abundance": 4, "dominant_species_id": "SP052", "dominance_pct": 100.0, "is_estimated": true, "district_mismatch": false, "district_id_declared": "KAZ019003" }, "geometry": { "type": "Point", "coordinates": [ 67.530422, 47.966551 ] } },
{ "type": "Feature", "properties": { "point_id": "P0042", "lat": 47.966552, "lon": 67.530423, "region_id": "KAZ019", "district_id": "KAZ019003", "locality": "Сатпаев", "zone": "Полуаридная / Тёплая", "zone_spatial": "Полуаридная / Тёплая", "zone_mismatch": false, "habitat": "Разнотравная степь", "species_count": 1, "total_abundance": 4, "dominant_species_id": "SP018", "dominance_pct": 100.0, "is_estimated": true, "district_mismatch": false, "district_id_declared": "KAZ019003" }, "geometry": { "type": "Point", "coordinates": [ 67.530423, 47.966552 ] } },
{ "type": "Feature", "properties": { "point_id": "P0043", "lat": 47.966553, "lon": 67.530424, "region_id": "KAZ019", "district_id": "KAZ019003", "locality": "Сатпаев", "zone": "Полуаридная / Тёплая", "zone_spatial": "Полуаридная / Тёплая", "zone_mismatch": false, "habitat": "Разнотравная степь", "species_count": 1, "total_abundance": 12, "dominant_species_id": "SP021", "dominance_pct": 100.0, "is_estimated": true, "district_mismatch": false, "district_id_declared": "KAZ019003" }, "geometry": { "type": "Point", "coordinates": [ 67.530424, 47.966553 ] } },
{ "type": "Feature", "properties": { "point_id": "P0044", "lat": 47.966554, "lon": 67.530425, "region_id": "KAZ019", "district_id": "KAZ019003", "locality": "Сатпаев", "zone": "Полуаридная / Тёплая", "zone_spatial": "Полуаридная / Тёплая", "zone_mismatch": false, "habitat": "Разнотравная степь", "species_count": 1, "total_abundance": 4, "dominant_species_id": "SP050", "dominance_pct": 100.0, "is_estimated": true, "district_mismatch": false, "district_id_declared": "KAZ019003" }, "geometry": { "type": "Point", "coordinates": [ 67.530425, 47.966554 ] } },
{ "type": "Feature", "properties": { "point_id": "P0045", "lat": 48.635101, "lon": 67.040228, "region_id": "KAZ019", "district_id": "KAZ019004", "locality": "Улытау", "zone": "Полуаридная / Тёплая", "zone_spatial": "Полуаридная / Тёплая", "zone_mismatch": false, "habitat": "Полынная степь", "species_count": 6, "total_abundance": 76, "dominant_species_id": "SP011", "dominance_pct": 47.368, "is_estimated": false, "district_mismatch": false, "district_id_declared": "KAZ019004" }, "geometry": { "type": "Point", "coordinates": [ 67.040228, 48.635101 ] } },
{ "type": "Feature", "properties": { "point_id": "P0046", "lat": 48.753428, "lon": 71.612885, "region_id": "KAZ019", "district_id": "KAZ019005", "locality": "Жанаарка", "zone": "Полуаридная / Тёплая", "zone_spatial": "Полуаридная / Тёплая", "zone_mismatch": false, "habitat": "Разнотравная степь", "species_count": 1, "total_abundance": 36, "dominant_species_id": "SP011", "dominance_pct": 100.0, "is_estimated": true, "district_mismatch": false, "district_id_declared": "KAZ019005" }, "geometry": { "type": "Point", "coordinates": [ 71.612885, 48.753428 ] } },
{ "type": "Feature", "properties": { "point_id": "P0047", "lat": 48.753429, "lon": 71.612885, "region_id": "KAZ019", "district_id": "KAZ019005", "locality": "Жанаарка", "zone": "Полуаридная / Тёплая", "zone_spatial": "Полуаридная / Тёплая", "zone_mismatch": false, "habitat": "Разнотравная степь", "species_count": 1, "total_abundance": 4, "dominant_species_id": "SP052", "dominance_pct": 100.0, "is_estimated": true, "district_mismatch": false, "district_id_declared": "KAZ019005" }, "geometry": { "type": "Point", "coordinates": [ 71.612885, 48.753429 ] } },
{ "type": "Feature", "properties": { "point_id": "P0048", "lat": 48.75343, "lon": 71.612885, "region_id": "KAZ019", "district_id": "KAZ019005", "locality": "Жанаарка", "zone": "Полуаридная / Тёплая", "zone_spatial": "Полуаридная / Тёплая", "zone_mismatch": false, "habitat": "Разнотравная степь", "species_count": 1, "total_abundance": 12, "dominant_species_id": "SP015", "dominance_pct": 100.0, "is_estimated": true, "district_mismatch": false, "district_id_declared": "KAZ019005" }, "geometry": { "type": "Point", "coordinates": [ 71.612885, 48.75343 ] } },
{ "type": "Feature", "properties": { "point_id": "P0049", "lat": 48.753431, "lon": 71.612885, "region_id": "KAZ019", "district_id": "KAZ019005", "locality": "Жанаарка", "zone": "Полуаридная / Тёплая", "zone_spatial": "Полуаридная / Тёплая", "zone_mismatch": false, "habitat": "Разнотравная степь", "species_count": 1, "total_abundance": 12, "dominant_species_id": "SP018", "dominance_pct": 100.0, "is_estimated": true, "district_mismatch": false, "district_id_declared": "KAZ019005" }, "geometry": { "type": "Point", "coordinates": [ 71.612885, 48.753431 ] } },
{ "type": "Feature", "properties": { "point_id": "P0050", "lat": 48.753432, "lon": 71.612885, "region_id": "KAZ019", "district_id": "KAZ019005", "locality": "Жанаарка", "zone": "Полуаридная / Тёплая", "zone_spatial": "Полуаридная / Тёплая", "zone_mismatch": false, "habitat": "Разнотравная степь", "species_count": 1, "total_abundance": 12, "dominant_species_id": "SP031", "dominance_pct": 100.0, "is_estimated": true, "district_mismatch": false, "district_id_declared": "KAZ019005" }, "geometry": { "type": "Point", "coordinates": [ 71.612885, 48.753432 ] } },
{ "type": "Feature", "properties": { "point_id": "P0051", "lat": 48.753433, "lon": 71.612885, "region_id": "KAZ019", "district_id": "KAZ019005", "locality": "Жанаарка", "zone": "Полуаридная / Тёплая", "zone_spatial": "Полуаридная / Тёплая", "zone_mismatch": false, "habitat": "Разнотравная степь", "species_count": 1, "total_abundance": 4, "dominant_species_id": "SP053", "dominance_pct": 100.0, "is_estimated": true, "district_mismatch": false, "district_id_declared": "KAZ019005" }, "geometry": { "type": "Point", "coordinates": [ 71.612885, 48.753433 ] } },
{ "type": "Feature", "properties": { "point_id": "P0052", "lat": 48.89441, "lon": 53.78361, "region_id": "KAZ007", "district_id": "KAZ007005", "locality": "Миялы", "zone": "Полуаридная / Тёплая", "zone_spatial": "Полуаридная / Тёплая", "zone_mismatch": false, "habitat": "Злаковая степь", "species_count": 4, "total_abundance": 72, "dominant_species_id": "SP011", "dominance_pct": 55.556, "is_estimated": false, "district_mismatch": false, "district_id_declared": "KAZ007005" }, "geometry": { "type": "Point", "coordinates": [ 53.78361, 48.89441 ] } },
{ "type": "Feature", "properties": { "point_id": "P0053", "lat": 48.966645, "lon": 79.289967, "region_id": "KAZ001", "district_id": "KAZ001001", "locality": "Карааул", "zone": "Полуаридная / Тёплая", "zone_spatial": "Полуаридная / Тёплая", "zone_mismatch": false, "habitat": "Злаковая степь", "species_count": 9, "total_abundance": 132, "dominant_species_id": "SP031", "dominance_pct": 21.212, "is_estimated": false, "district_mismatch": false, "district_id_declared": "KAZ001001" }, "geometry": { "type": "Point", "coordinates": [ 79.289967, 48.966645 ] } },
{ "type": "Feature", "properties": { "point_id": "P0054", "lat": 49.34001, "lon": 57.00372, "region_id": "KAZ003", "district_id": "KAZ003009", "locality": "Темир", "zone": "Полуаридная / Тёплая", "zone_spatial": "Полуаридная / Тёплая", "zone_mismatch": false, "habitat": "Полынно-злаковая степь", "species_count": 5, "total_abundance": 84, "dominant_species_id": "SP012", "dominance_pct": 76.19, "is_estimated": false, "district_mismatch": true, "district_id_declared": "KAZ003005" }, "geometry": { "type": "Point", "coordinates": [ 57.00372, 49.34001 ] } },
{ "type": "Feature", "properties": { "point_id": "P0055", "lat": 49.43832, "lon": 75.566623, "region_id": "KAZ011", "district_id": "KAZ011006", "locality": "Каркаралинск", "zone": "Полуаридная / Тёплая", "zone_spatial": "Увлажнённая / Умеренно тёплая", "zone_mismatch": true, "habitat": "Луговая степь (разнотравье)", "species_count": 5, "total_abundance": 48, "dominant_species_id": "SP012", "dominance_pct": 66.667, "is_estimated": false, "district_mismatch": false, "district_id_declared": "KAZ011006" }, "geometry": { "type": "Point", "coordinates": [ 75.566623, 49.43832 ] } },
{ "type": "Feature", "properties": { "point_id": "P0056", "lat": 49.56008, "lon": 63.65478, "region_id": "KAZ012", "district_id": "KAZ012019", "locality": "Басага", "zone": "Полуаридная / Тёплая", "zone_spatial": "Полуаридная / Тёплая", "zone_mismatch": false, "habitat": "Ковыльно-типчаково-полынная степь", "species_count": 4, "total_abundance": 72, "dominant_species_id": "SP012", "dominance_pct": 44.444, "is_estimated": false, "district_mismatch": false, "district_id_declared": "KAZ012019" }, "geometry": { "type": "Point", "coordinates": [ 63.65478, 49.56008 ] } },
{ "type": "Feature", "properties": { "point_id": "P0057", "lat": 49.56521, "lon": 63.66251, "region_id": "KAZ012", "district_id": "KAZ012019", "locality": "Басага", "zone": "Полуаридная / Тёплая", "zone_spatial": "Полуаридная / Тёплая", "zone_mismatch": false, "habitat": "Злаково-ковыльная степь", "species_count": 8, "total_abundance": 116, "dominant_species_id": "SP012", "dominance_pct": 44.828, "is_estimated": false, "district_mismatch": false, "district_id_declared": "KAZ012019" }, "geometry": { "type": "Point", "coordinates": [ 63.66251, 49.56521 ] } },
{ "type": "Feature", "properties": { "point_id": "P0058", "lat": 49.567077, "lon": 72.822476, "region_id": "KAZ011", "district_id": "KAZ011001", "locality": "Абай", "zone": "Полуаридная / Тёплая", "zone_spatial": "Полуаридная / Тёплая", "zone_mismatch": false, "habitat": "Полынно-злаковая степь", "species_count": 7, "total_abundance": 84, "dominant_species_id": "SP038", "dominance_pct": 38.095, "is_estimated": false, "district_mismatch": false, "district_id_declared": "KAZ011001" }, "geometry": { "type": "Point", "coordinates": [ 72.822476, 49.567077 ] } },
{ "type": "Feature", "properties": { "point_id": "P0059", "lat": 49.575037, "lon": 75.226936, "region_id": "KAZ011", "district_id": "KAZ011006", "locality": "Едилбек", "zone": "Полуаридная / Тёплая", "zone_spatial": "Увлажнённая / Умеренно тёплая", "zone_mismatch": true, "habitat": "Луговая степь (разнотравье)", "species_count": 7, "total_abundance": 80, "dominant_species_id": "SP010", "dominance_pct": 20.0, "is_estimated": false, "district_mismatch": false, "district_id_declared": "KAZ011006" }, "geometry": { "type": "Point", "coordinates": [ 75.226936, 49.575037 ] } },
{ "type": "Feature", "properties": { "point_id": "P0060", "lat": 49.65048, "lon": 63.6769, "region_id": "KAZ012", "district_id": "KAZ012019", "locality": "Калам-Карасу", "zone": "Полуаридная / Тёплая", "zone_spatial": "Полуаридная / Тёплая", "zone_mismatch": false, "habitat": "Типчаково-полынная степь", "species_count": 2, "total_abundance": 48, "dominant_species_id": "SP012", "dominance_pct": 83.333, "is_estimated": false, "district_mismatch": false, "district_id_declared": "KAZ012019" }, "geometry": { "type": "Point", "coordinates": [ 63.6769, 49.65048 ] } },
{ "type": "Feature", "properties": { "point_id": "P0061", "lat": 49.697257, "lon": 53.59844, "region_id": "KAZ020", "district_id": "KAZ020004", "locality": "Каратобе", "zone": "Полуаридная / Тёплая", "zone_spatial": "Полуаридная / Тёплая", "zone_mismatch": false, "habitat": "Злаково-полынная степь", "species_count": 4, "total_abundance": 40, "dominant_species_id": "SP012", "dominance_pct": 70.0, "is_estimated": false, "district_mismatch": false, "district_id_declared": "KAZ020004" }, "geometry": { "type": "Point", "coordinates": [ 53.59844, 49.697257 ] } },
{ "type": "Feature", "properties": { "point_id": "P0062", "lat": 49.72057, "lon": 63.6216, "region_id": "KAZ012", "district_id": "KAZ012019", "locality": "Калам-Карасу", "zone": "Полуаридная / Тёплая", "zone_spatial": "Полуаридная / Тёплая", "zone_mismatch": false, "habitat": "Рудеральный (придорожный, разнотравный)", "species_count": 5, "total_abundance": 36, "dominant_species_id": "SP011", "dominance_pct": 33.333, "is_estimated": false, "district_mismatch": false, "district_id_declared": "KAZ012019" }, "geometry": { "type": "Point", "coordinates": [ 63.6216, 49.72057 ] } },
{ "type": "Feature", "properties": { "point_id": "P0063", "lat": 49.72097, "lon": 63.6216, "region_id": "KAZ012", "district_id": "KAZ012019", "locality": "Калам-Карасу", "zone": "Полуаридная / Тёплая", "zone_spatial": "Полуаридная / Тёплая", "zone_mismatch": false, "habitat": "Злаково-полынная степь", "species_count": 6, "total_abundance": 72, "dominant_species_id": "SP012", "dominance_pct": 38.889, "is_estimated": false, "district_mismatch": false, "district_id_declared": "KAZ012019" }, "geometry": { "type": "Point", "coordinates": [ 63.6216, 49.72097 ] } },
{ "type": "Feature", "properties": { "point_id": "P0064", "lat": 49.788633, "lon": 57.212262, "region_id": "KAZ003", "district_id": "KAZ003002", "locality": "Новоукраинка", "zone": "Полуаридная / Тёплая", "zone_spatial": "Полуаридная / Тёплая", "zone_mismatch": false, "habitat": "Полынно-злаковая степь", "species_count": 5, "total_abundance": 64, "dominant_species_id": "SP012", "dominance_pct": 56.25, "is_estimated": false, "district_mismatch": false, "district_id_declared": "KAZ003002" }, "geometry": { "type": "Point", "coordinates": [ 57.212262, 49.788633 ] } },
{ "type": "Feature", "properties": { "point_id": "P0065", "lat": 50.07715, "lon": 66.50857, "region_id": "KAZ012", "district_id": "KAZ012003", "locality": "Ашутасты", "zone": "Полуаридная / Тёплая", "zone_spatial": "Полуаридная / Тёплая", "zone_mismatch": false, "habitat": "Типчаково-пырейная степь", "species_count": 6, "total_abundance": 36, "dominant_species_id": "SP018", "dominance_pct": 22.222, "is_estimated": false, "district_mismatch": false, "district_id_declared": null }, "geometry": { "type": "Point", "coordinates": [ 66.50857, 50.07715 ] } },
{ "type": "Feature", "properties": { "point_id": "P0066", "lat": 50.09966, "lon": 66.5586, "region_id": "KAZ012", "district_id": "KAZ012003", "locality": "Ашутасты", "zone": "Полуаридная / Тёплая", "zone_spatial": "Полуаридная / Тёплая", "zone_mismatch": false, "habitat": "Злаково-полынная степь", "species_count": 7, "total_abundance": 136, "dominant_species_id": "SP012", "dominance_pct": 38.235, "is_estimated": false, "district_mismatch": false, "district_id_declared": "KAZ012003" }, "geometry": { "type": "Point", "coordinates": [ 66.5586, 50.09966 ] } },
{ "type": "Feature", "properties": { "point_id": "P0067", "lat": 50.13436, "lon": 66.48628, "region_id": "KAZ012", "district_id": "KAZ012003", "locality": "Коктау", "zone": "Полуаридная / Тёплая", "zone_spatial": "Полуаридная / Тёплая", "zone_mismatch": false, "habitat": "Пырейно-типчаковая степь", "species_count": 7, "total_abundance": 40, "dominant_species_id": "SP012", "dominance_pct": 30.0, "is_estimated": false, "district_mismatch": false, "district_id_declared": null }, "geometry": { "type": "Point", "coordinates": [ 66.48628, 50.13436 ] } },
{ "type": "Feature", "properties": { "point_id": "P0068", "lat": 50.148395, "lon": 51.15001, "region_id": "KAZ020", "district_id": "KAZ020001", "locality": "Чапаев", "zone": "Полуаридная / Тёплая", "zone_spatial": "Полуаридная / Тёплая", "zone_mismatch": false, "habitat": "Злаково-полынная степь", "species_count": 7, "total_abundance": 68, "dominant_species_id": "SP012", "dominance_pct": 41.176, "is_estimated": false, "district_mismatch": false, "district_id_declared": "KAZ020001" }, "geometry": { "type": "Point", "coordinates": [ 51.15001, 50.148395 ] } },
{ "type": "Feature", "properties": { "point_id": "P0069", "lat": 50.15361, "lon": 73.907558, "region_id": "KAZ011", "district_id": "KAZ011004", "locality": "Чайлы", "zone": "Увлажнённая / Умеренно тёплая", "zone_spatial": "Увлажнённая / Умеренно тёплая", "zone_mismatch": false, "habitat": "Злаково-ковыльная степь", "species_count": 3, "total_abundance": 32, "dominant_species_id": "SP050", "dominance_pct": 62.5, "is_estimated": false, "district_mismatch": false, "district_id_declared": "KAZ011004" }, "geometry": { "type": "Point", "coordinates": [ 73.907558, 50.15361 ] } },
{ "type": "Feature", "properties": { "point_id": "P0070", "lat": 50.153617, "lon": 73.807862, "region_id": "KAZ011", "district_id": "KAZ011004", "locality": "Жастлек", "zone": "Полуаридная / Тёплая", "zone_spatial": "Увлажнённая / Умеренно тёплая", "zone_mismatch": true, "habitat": "Полынно-злаково-разнотравная степь", "species_count": 4, "total_abundance": 68, "dominant_species_id": "SP012", "dominance_pct": 41.176, "is_estimated": false, "district_mismatch": false, "district_id_declared": "KAZ011004" }, "geometry": { "type": "Point", "coordinates": [ 73.807862, 50.153617 ] } },
{ "type": "Feature", "properties": { "point_id": "P0071", "lat": 50.17246, "lon": 65.24341, "region_id": "KAZ012", "district_id": "KAZ012002", "locality": "Есир", "zone": "Полуаридная / Тёплая", "zone_spatial": "Полуаридная / Тёплая", "zone_mismatch": false, "habitat": "Типчаково-ковыльная степь", "species_count": 5, "total_abundance": 72, "dominant_species_id": "SP012", "dominance_pct": 61.111, "is_estimated": false, "district_mismatch": false, "district_id_declared": "KAZ012002" }, "geometry": { "type": "Point", "coordinates": [ 65.24341, 50.17246 ] } },
{ "type": "Feature", "properties": { "point_id": "P0072", "lat": 50.2088, "lon": 65.233772, "region_id": "KAZ012", "district_id": "KAZ012002", "locality": "Екпинди", "zone": "Полуаридная / Тёплая", "zone_spatial": "Полуаридная / Тёплая", "zone_mismatch": false, "habitat": "Злаково-ковыльная степь", "species_count": 6, "total_abundance": 44, "dominant_species_id": "SP031", "dominance_pct": 45.455, "is_estimated": false, "district_mismatch": false, "district_id_declared": "KAZ012002" }, "geometry": { "type": "Point", "coordinates": [ 65.233772, 50.2088 ] } },
{ "type": "Feature", "properties": { "point_id": "P0073", "lat": 50.24657, "lon": 65.3147, "region_id": "KAZ012", "district_id": "KAZ012002", "locality": "Агайдар", "zone": "Полуаридная / Тёплая", "zone_spatial": "Полуаридная / Тёплая", "zone_mismatch": false, "habitat": "Злаково-типчаково-ковыльная степь", "species_count": 7, "total_abundance": 64, "dominant_species_id": "SP015", "dominance_pct": 50.0, "is_estimated": false, "district_mismatch": false, "district_id_declared": "KAZ012002" }, "geometry": { "type": "Point", "coordinates": [ 65.3147, 50.24657 ] } },
{ "type": "Feature", "properties": { "point_id": "P0074", "lat": 50.27345, "lon": 65.53064, "region_id": "KAZ012", "district_id": "KAZ012002", "locality": "Аксуат", "zone": "Полуаридная / Тёплая", "zone_spatial": "Полуаридная / Тёплая", "zone_mismatch": false, "habitat": "Ковыльно-злаковая степь", "species_count": 5, "total_abundance": 60, "dominant_species_id": "SP012", "dominance_pct": 46.667, "is_estimated": false, "district_mismatch": false, "district_id_declared": "KAZ012002" }, "geometry": { "type": "Point", "coordinates": [ 65.53064, 50.27345 ] } },
{ "type": "Feature", "properties": { "point_id": "P0075", "lat": 50.3411, "lon": 80.35413, "region_id": "KAZ001", "district_id": "KAZ001008", "locality": "Номер Один", "zone": "Полуаридная / Тёплая", "zone_spatial": "Полуаридная / Тёплая", "zone_mismatch": false, "habitat": "Агроценоз (бахчевые культуры)", "species_count": 7, "total_abundance": 100, "dominant_species_id": "SP011", "dominance_pct": 40.0, "is_estimated": false, "district_mismatch": true, "district_id_declared": "KAZ013007" }, "geometry": { "type": "Point", "coordinates": [ 80.35413, 50.3411 ] } },
{ "type": "Feature", "properties": { "point_id": "P0076", "lat": 50.351913, "lon": 56.99121, "region_id": "KAZ003", "district_id": "KAZ003001", "locality": "Курашасай", "zone": "Полуаридная / Тёплая", "zone_spatial": "Полуаридная / Тёплая", "zone_mismatch": false, "habitat": "Луговая степь (разнотравье)", "species_count": 6, "total_abundance": 96, "dominant_species_id": "SP012", "dominance_pct": 54.167, "is_estimated": false, "district_mismatch": true, "district_id_declared": "KAZ003008" }, "geometry": { "type": "Point", "coordinates": [ 56.99121, 50.351913 ] } },
{ "type": "Feature", "properties": { "point_id": "P0077", "lat": 50.475003, "lon": 72.717948, "region_id": "KAZ011", "district_id": "KAZ011008", "locality": "Осакаровка", "zone": "Полуаридная / Умеренно тёплая", "zone_spatial": "Увлажнённая / Умеренно тёплая", "zone_mismatch": true, "habitat": "Агроценоз (посев пшеницы)", "species_count": 8, "total_abundance": 72, "dominant_species_id": "SP012", "dominance_pct": 22.222, "is_estimated": false, "district_mismatch": false, "district_id_declared": "KAZ011008" }, "geometry": { "type": "Point", "coordinates": [ 72.717948, 50.475003 ] } },
{ "type": "Feature", "properties": { "point_id": "P0078", "lat": 50.53267, "lon": 52.41659, "region_id": "KAZ020", "district_id": "KAZ020007", "locality": "Жымпиты", "zone": "Полуаридная / Тёплая", "zone_spatial": "Полуаридная / Тёплая", "zone_mismatch": false, "habitat": "Злаковая степь", "species_count": 3, "total_abundance": 46, "dominant_species_id": "SP012", "dominance_pct": 82.609, "is_estimated": false, "district_mismatch": false, "district_id_declared": "KAZ020007" }, "geometry": { "type": "Point", "coordinates": [ 52.41659, 50.53267 ] } },
{ "type": "Feature", "properties": { "point_id": "P0079", "lat": 50.613881, "lon": 79.130175, "region_id": "KAZ001", "district_id": "KAZ001004", "locality": "Бодене", "zone": "Полуаридная / Тёплая", "zone_spatial": "Полуаридная / Тёплая", "zone_mismatch": false, "habitat": "Злаковая степь", "species_count": 9, "total_abundance": 108, "dominant_species_id": "SP023", "dominance_pct": 48.148, "is_estimated": false, "district_mismatch": false, "district_id_declared": "KAZ001004" }, "geometry": { "type": "Point", "coordinates": [ 79.130175, 50.613881 ] } },
{ "type": "Feature", "properties": { "point_id": "P0080", "lat": 50.64843, "lon": 52.0881, "region_id": "KAZ020", "district_id": "KAZ020007", "locality": "Алгабас", "zone": "Полуаридная / Тёплая", "zone_spatial": "Полуаридная / Тёплая", "zone_mismatch": false, "habitat": "Злаковая степь", "species_count": 5, "total_abundance": 84, "dominant_species_id": "SP012", "dominance_pct": 71.429, "is_estimated": false, "district_mismatch": false, "district_id_declared": "KAZ020007" }, "geometry": { "type": "Point", "coordinates": [ 52.0881, 50.64843 ] } },
{ "type": "Feature", "properties": { "point_id": "P0081", "lat": 50.841132, "lon": 80.350215, "region_id": "KAZ001", "district_id": "KAZ001005", "locality": "Зубаир", "zone": "Полуаридная / Тёплая", "zone_spatial": "Полуаридная / Тёплая", "zone_mismatch": false, "habitat": "Кустарниково-древесная растительность речных пойм", "species_count": 8, "total_abundance": 56, "dominant_species_id": "SP011", "dominance_pct": 35.714, "is_estimated": false, "district_mismatch": true, "district_id_declared": "KAZ013008" }, "geometry": { "type": "Point", "coordinates": [ 80.350215, 50.841132 ] } },
{ "type": "Feature", "properties": { "point_id": "P0082", "lat": 50.951813, "lon": 56.98121, "region_id": "KAZ003", "district_id": "KAZ003008", "locality": "Шевченко", "zone": "Полуаридная / Умеренно тёплая", "zone_spatial": "Полуаридная / Тёплая", "zone_mismatch": true, "habitat": "Луговая степь (разнотравье)", "species_count": 4, "total_abundance": 92, "dominant_species_id": "SP012", "dominance_pct": 69.565, "is_estimated": false, "district_mismatch": true, "district_id_declared": "KAZ003010" }, "geometry": { "type": "Point", "coordinates": [ 56.98121, 50.951813 ] } },
{ "type": "Feature", "properties": { "point_id": "P0083", "lat": 51.08792, "lon": 50.30424, "region_id": "KAZ020", "district_id": "KAZ020008", "locality": "Шипово", "zone": "Полуаридная / Тёплая", "zone_spatial": "Полуаридная / Тёплая", "zone_mismatch": false, "habitat": "Злаково-полынная степь", "species_count": 7, "total_abundance": 164, "dominant_species_id": "SP012", "dominance_pct": 68.293, "is_estimated": false, "district_mismatch": true, "district_id_declared": "KAZ020011" }, "geometry": { "type": "Point", "coordinates": [ 50.30424, 51.08792 ] } },
{ "type": "Feature", "properties": { "point_id": "P0084", "lat": 51.08792, "lon": 50.304324, "region_id": "KAZ020", "district_id": "KAZ020008", "locality": "Шипово", "zone": "Полуаридная / Тёплая", "zone_spatial": "Полуаридная / Тёплая", "zone_mismatch": false, "habitat": "Злаково-полынная степь", "species_count": 5, "total_abundance": 96, "dominant_species_id": "SP018", "dominance_pct": 50.0, "is_estimated": false, "district_mismatch": false, "district_id_declared": "KAZ020008" }, "geometry": { "type": "Point", "coordinates": [ 50.304324, 51.08792 ] } },
{ "type": "Feature", "properties": { "point_id": "P0085", "lat": 51.186168, "lon": 50.893388, "region_id": "KAZ020", "district_id": "KAZ020011", "locality": "Переметное", "zone": "Полуаридная / Тёплая", "zone_spatial": "Полуаридная / Тёплая", "zone_mismatch": false, "habitat": "Злаково-полынная степь", "species_count": 4, "total_abundance": 52, "dominant_species_id": "SP012", "dominance_pct": 61.538, "is_estimated": false, "district_mismatch": false, "district_id_declared": "KAZ020011" }, "geometry": { "type": "Point", "coordinates": [ 50.893388, 51.186168 ] } },
{ "type": "Feature", "properties": { "point_id": "P0086", "lat": 51.225628, "lon": 72.117792, "region_id": "KAZ002", "district_id": "KAZ002002", "locality": "Ботакара", "zone": "Полуаридная / Умеренно тёплая", "zone_spatial": "Увлажнённая / Умеренно тёплая", "zone_mismatch": true, "habitat": "Полынно-злаково-разнотравная степь", "species_count": 4, "total_abundance": 64, "dominant_species_id": "SP012", "dominance_pct": 50.0, "is_estimated": false, "district_mismatch": true, "district_id_declared": "KAZ011004" }, "geometry": { "type": "Point", "coordinates": [ 72.117792, 51.225628 ] } },
{ "type": "Feature", "properties": { "point_id": "P0087", "lat": 51.27312, "lon": 77.581212, "region_id": "KAZ016", "district_id": "KAZ016007", "locality": "Кызылоктябрь", "zone": "Полуаридная / Тёплая", "zone_spatial": "Полуаридная / Тёплая", "zone_mismatch": false, "habitat": "Луговая степь (разнотравье)", "species_count": 3, "total_abundance": 40, "dominant_species_id": "SP050", "dominance_pct": 50.0, "is_estimated": false, "district_mismatch": true, "district_id_declared": "KAZ016003" }, "geometry": { "type": "Point", "coordinates": [ 77.581212, 51.27312 ] } },
{ "type": "Feature", "properties": { "point_id": "P0088", "lat": 51.31272, "lon": 77.30212, "region_id": "KAZ016", "district_id": "KAZ016007", "locality": "Елубай", "zone": "Полуаридная / Тёплая", "zone_spatial": "Полуаридная / Тёплая", "zone_mismatch": false, "habitat": "Агроценоз (посев пшеницы)", "species_count": 5, "total_abundance": 52, "dominant_species_id": "SP050", "dominance_pct": 38.462, "is_estimated": false, "district_mismatch": true, "district_id_declared": "KAZ016003" }, "geometry": { "type": "Point", "coordinates": [ 77.30212, 51.31272 ] } },
{ "type": "Feature", "properties": { "point_id": "P0089", "lat": 51.689672, "lon": 70.970227, "region_id": "KAZ002", "district_id": "KAZ002014", "locality": "Жданово", "zone": "Очень увлажнённая / Умеренно тёплая", "zone_spatial": "Увлажнённая / Умеренно тёплая", "zone_mismatch": true, "habitat": "Разнотравная степь", "species_count": 4, "total_abundance": 44, "dominant_species_id": "SP029", "dominance_pct": 45.455, "is_estimated": false, "district_mismatch": false, "district_id_declared": "KAZ002014" }, "geometry": { "type": "Point", "coordinates": [ 70.970227, 51.689672 ] } },
{ "type": "Feature", "properties": { "point_id": "P0090", "lat": 51.721657, "lon": 70.992091, "region_id": "KAZ002", "district_id": "KAZ002014", "locality": "Шортанды", "zone": "Очень увлажнённая / Умеренно тёплая", "zone_spatial": "Увлажнённая / Умеренно тёплая", "zone_mismatch": true, "habitat": "Луговая степь (разнотравье)", "species_count": 6, "total_abundance": 72, "dominant_species_id": "SP012", "dominance_pct": 55.556, "is_estimated": false, "district_mismatch": false, "district_id_declared": "KAZ002014" }, "geometry": { "type": "Point", "coordinates": [ 70.992091, 51.721657 ] } },
{ "type": "Feature", "properties": { "point_id": "P0091", "lat": 51.762049, "lon": 71.731915, "region_id": "KAZ002", "district_id": "KAZ002014", "locality": "Жолымбет", "zone": "Увлажнённая / Умеренно тёплая", "zone_spatial": "Увлажнённая / Умеренно тёплая", "zone_mismatch": false, "habitat": "Полынно-ковыльная степь", "species_count": 5, "total_abundance": 56, "dominant_species_id": "SP012", "dominance_pct": 57.143, "is_estimated": false, "district_mismatch": false, "district_id_declared": "KAZ002014" }, "geometry": { "type": "Point", "coordinates": [ 71.731915, 51.762049 ] } },
{ "type": "Feature", "properties": { "point_id": "P0092", "lat": 51.774094, "lon": 74.755182, "region_id": "KAZ016", "district_id": "KAZ016004", "locality": "Шидерты", "zone": "Увлажнённая / Умеренно тёплая", "zone_spatial": "Полуаридная / Тёплая", "zone_mismatch": true, "habitat": "Полынная степь", "species_count": 5, "total_abundance": 44, "dominant_species_id": "SP007", "dominance_pct": 45.455, "is_estimated": false, "district_mismatch": true, "district_id_declared": "KAZ002014" }, "geometry": { "type": "Point", "coordinates": [ 74.755182, 51.774094 ] } },
{ "type": "Feature", "properties": { "point_id": "P0093", "lat": 51.9515, "lon": 77.308884, "region_id": "KAZ016", "district_id": "KAZ016009", "locality": "Кенес", "zone": "Полуаридная / Умеренно тёплая", "zone_spatial": "Полуаридная / Умеренно тёплая", "zone_mismatch": false, "habitat": "Разнотравная степь", "species_count": 5, "total_abundance": 48, "dominant_species_id": "SP050", "dominance_pct": 33.333, "is_estimated": false, "district_mismatch": true, "district_id_declared": "KAZ016011" }, "geometry": { "type": "Point", "coordinates": [ 77.308884, 51.9515 ] } },
{ "type": "Feature", "properties": { "point_id": "P0094", "lat": 51.96929, "lon": 77.29608, "region_id": "KAZ016", "district_id": "KAZ016009", "locality": "Кенес", "zone": "Полуаридная / Умеренно тёплая", "zone_spatial": "Полуаридная / Умеренно тёплая", "zone_mismatch": false, "habitat": "Типчаковая степь", "species_count": 5, "total_abundance": 36, "dominant_species_id": "SP015", "dominance_pct": 44.444, "is_estimated": false, "district_mismatch": true, "district_id_declared": "KAZ016011" }, "geometry": { "type": "Point", "coordinates": [ 77.29608, 51.96929 ] } },
{ "type": "Feature", "properties": { "point_id": "P0095", "lat": 52.088358, "lon": 64.259932, "region_id": "KAZ012", "district_id": "KAZ012004", "locality": "Сулукульский", "zone": "Полуаридная / Умеренно тёплая", "zone_spatial": "Полуаридная / Умеренно тёплая", "zone_mismatch": false, "habitat": "Разнотравная степь", "species_count": 9, "total_abundance": 180, "dominant_species_id": "SP004", "dominance_pct": 24.444, "is_estimated": false, "district_mismatch": true, "district_id_declared": "KAZ012011" }, "geometry": { "type": "Point", "coordinates": [ 64.259932, 52.088358 ] } },
{ "type": "Feature", "properties": { "point_id": "P0096", "lat": 52.50382, "lon": 76.913331, "region_id": "KAZ016", "district_id": "KAZ016009", "locality": "Березовка", "zone": "Полуаридная / Умеренно тёплая", "zone_spatial": "Полуаридная / Умеренно тёплая", "zone_mismatch": false, "habitat": "Злаковая степь", "species_count": 8, "total_abundance": 96, "dominant_species_id": "SP032", "dominance_pct": 20.833, "is_estimated": false, "district_mismatch": false, "district_id_declared": "KAZ016009" }, "geometry": { "type": "Point", "coordinates": [ 76.913331, 52.50382 ] } },
{ "type": "Feature", "properties": { "point_id": "P0097", "lat": 52.615484, "lon": 70.719993, "region_id": "KAZ002", "district_id": "KAZ002005", "locality": "Карл Маркс", "zone": "Очень увлажнённая / Умеренно тёплая", "zone_spatial": "Увлажнённая / Умеренно тёплая", "zone_mismatch": true, "habitat": "Типчаково-полынная степь", "species_count": 8, "total_abundance": 84, "dominant_species_id": "SP074", "dominance_pct": 28.571, "is_estimated": false, "district_mismatch": false, "district_id_declared": "KAZ002005" }, "geometry": { "type": "Point", "coordinates": [ 70.719993, 52.615484 ] } },
{ "type": "Feature", "properties": { "point_id": "P0098", "lat": 52.688585, "lon": 70.719103, "region_id": "KAZ002", "district_id": "KAZ002005", "locality": "Кудукагаш", "zone": "Очень увлажнённая / Умеренно тёплая", "zone_spatial": "Увлажнённая / Умеренно тёплая", "zone_mismatch": true, "habitat": "Луговая степь (разнотравье)", "species_count": 5, "total_abundance": 116, "dominant_species_id": "SP004", "dominance_pct": 55.172, "is_estimated": false, "district_mismatch": false, "district_id_declared": "KAZ002005" }, "geometry": { "type": "Point", "coordinates": [ 70.719103, 52.688585 ] } },
{ "type": "Feature", "properties": { "point_id": "P0099", "lat": 52.81231, "lon": 70.763779, "region_id": "KAZ002", "district_id": "KAZ002005", "locality": "Первомайка", "zone": "Очень увлажнённая / Умеренно тёплая", "zone_spatial": "Увлажнённая / Умеренно тёплая", "zone_mismatch": true, "habitat": "Полынно-злаковая степь", "species_count": 8, "total_abundance": 60, "dominant_species_id": "SP006", "dominance_pct": 20.0, "is_estimated": false, "district_mismatch": false, "district_id_declared": "KAZ002005" }, "geometry": { "type": "Point", "coordinates": [ 70.763779, 52.81231 ] } },
{ "type": "Feature", "properties": { "point_id": "P0100", "lat": 52.819151, "lon": 70.785408, "region_id": "KAZ002", "district_id": "KAZ002005", "locality": "Первомайка", "zone": "Очень увлажнённая / Умеренно тёплая", "zone_spatial": "Увлажнённая / Умеренно тёплая", "zone_mismatch": true, "habitat": "Полынно-злаковая степь", "species_count": 11, "total_abundance": 168, "dominant_species_id": "SP058", "dominance_pct": 26.19, "is_estimated": true, "district_mismatch": false, "district_id_declared": "KAZ002005" }, "geometry": { "type": "Point", "coordinates": [ 70.785408, 52.819151 ] } },
{ "type": "Feature", "properties": { "point_id": "P0101", "lat": 52.856378, "lon": 69.133656, "region_id": "KAZ002", "district_id": "KAZ002017", "locality": "Зеренда", "zone": "Увлажнённая / Умеренно тёплая", "zone_spatial": "Очень увлажнённая / Умеренно тёплая", "zone_mismatch": true, "habitat": "Злаково-полынная степь", "species_count": 7, "total_abundance": 64, "dominant_species_id": "SP007", "dominance_pct": 43.75, "is_estimated": false, "district_mismatch": false, "district_id_declared": "KAZ002017" }, "geometry": { "type": "Point", "coordinates": [ 69.133656, 52.856378 ] } },
{ "type": "Feature", "properties": { "point_id": "P0102", "lat": 53.027386, "lon": 76.316314, "region_id": "KAZ016", "district_id": "KAZ016011", "locality": "Песчаное", "zone": "Полуаридная / Умеренно тёплая", "zone_spatial": "Полуаридная / Умеренно тёплая", "zone_mismatch": false, "habitat": "Полынно-злаковая степь", "species_count": 6, "total_abundance": 88, "dominant_species_id": "SP015", "dominance_pct": 31.818, "is_estimated": false, "district_mismatch": false, "district_id_declared": "KAZ016011" }, "geometry": { "type": "Point", "coordinates": [ 76.316314, 53.027386 ] } },
{ "type": "Feature", "properties": { "point_id": "P0103", "lat": 53.205621, "lon": 63.777149, "region_id": "KAZ012", "district_id": "KAZ012011", "locality": "Костанай", "zone": "Увлажнённая / Умеренно тёплая", "zone_spatial": "Увлажнённая / Умеренно тёплая", "zone_mismatch": false, "habitat": "Старовозрастные посевы житняка", "species_count": 9, "total_abundance": 120, "dominant_species_id": "SP014", "dominance_pct": 16.667, "is_estimated": false, "district_mismatch": true, "district_id_declared": "KAZ012010" }, "geometry": { "type": "Point", "coordinates": [ 63.777149, 53.205621 ] } },
{ "type": "Feature", "properties": { "point_id": "P0104", "lat": 54.515926, "lon": 69.2277, "region_id": "KAZ015", "district_id": "KAZ015002", "locality": "Астраханка", "zone": "Очень увлажнённая / Умеренно тёплая", "zone_spatial": "Очень увлажнённая / Умеренно тёплая", "zone_mismatch": false, "habitat": "Злаковая степь", "species_count": 8, "total_abundance": 76, "dominant_species_id": "SP014", "dominance_pct": 15.789, "is_estimated": false, "district_mismatch": false, "district_id_declared": "KAZ015002" }, "geometry": { "type": "Point", "coordinates": [ 69.2277, 54.515926 ] } },
{ "type": "Feature", "properties": { "point_id": "P0105", "lat": 54.515932, "lon": 69.227712, "region_id": "KAZ015", "district_id": "KAZ015002", "locality": "Астраханка", "zone": "Очень увлажнённая / Умеренно тёплая", "zone_spatial": "Очень увлажнённая / Умеренно тёплая", "zone_mismatch": false, "habitat": "Луговая степь (разнотравье)", "species_count": 5, "total_abundance": 52, "dominant_species_id": "SP007", "dominance_pct": 23.077, "is_estimated": false, "district_mismatch": false, "district_id_declared": "KAZ015002" }, "geometry": { "type": "Point", "coordinates": [ 69.227712, 54.515932 ] } },
{ "type": "Feature", "properties": { "point_id": "P0106", "lat": 54.751699, "lon": 69.66087, "region_id": "KAZ015", "district_id": "KAZ015002", "locality": "Петропавловск", "zone": "Очень увлажнённая / Умеренно тёплая", "zone_spatial": "Очень увлажнённая / Умеренно тёплая", "zone_mismatch": false, "habitat": "Злаково-разнотравная степь", "species_count": 6, "total_abundance": 144, "dominant_species_id": "SP015", "dominance_pct": 38.889, "is_estimated": false, "district_mismatch": true, "district_id_declared": "KAZ015008" }, "geometry": { "type": "Point", "coordinates": [ 69.66087, 54.751699 ] } },
{ "type": "Feature", "properties": { "point_id": "P0107", "lat": 54.929738, "lon": 68.485649, "region_id": "KAZ015", "district_id": "KAZ015007", "locality": "Воскресеновка", "zone": "Очень увлажнённая / Умеренно тёплая", "zone_spatial": "Очень увлажнённая / Умеренно тёплая", "zone_mismatch": false, "habitat": "Полынно-злаковая степь", "species_count": 7, "total_abundance": 96, "dominant_species_id": "SP053", "dominance_pct": 45.833, "is_estimated": false, "district_mismatch": true, "district_id_declared": "KAZ015004" }, "geometry": { "type": "Point", "coordinates": [ 68.485649, 54.929738 ] } },
{ "type": "Feature", "properties": { "point_id": "P0108", "lat": 54.945229, "lon": 69.236547, "region_id": "KAZ015", "district_id": "KAZ015009", "locality": "Пеньково", "zone": "Очень увлажнённая / Умеренно тёплая", "zone_spatial": "Очень увлажнённая / Умеренно тёплая", "zone_mismatch": false, "habitat": "Полынная степь", "species_count": 7, "total_abundance": 40, "dominant_species_id": "SP031", "dominance_pct": 30.0, "is_estimated": false, "district_mismatch": false, "district_id_declared": "KAZ015009" }, "geometry": { "type": "Point", "coordinates": [ 69.236547, 54.945229 ] } }
]
}
