{
"type": "FeatureCollection",
"name": "settlements",
"crs": { "type": "name", "properties": { "name": "urn:ogc:def:crs:OGC:1.3:CRS84" } },
"features": [
{ "type": "Feature", "properties": { "FID": 0, "name": "Талғар", "name_en": "Talgar", "place": "city", "population": "65356", "name_kk": "Талғар", "name_ru": "Талгар", "adm_type": "РЦ", "settlement_id": "S0" }, "geometry": { "type": "Point", "coordinates": [ 77.2394726, 43.302721 ] } },
{ "type": "Feature", "properties": { "FID": 1, "name": "Астана", "name_en": "Astana", "place": "city", "population": "1601490", "name_kk": "Астана", "name_ru": "Астана", "adm_type": "Столица", "settlement_id": "S1" }, "geometry": { "type": "Point", "coordinates": [ 71.4306682, 51.1282205 ] } },
{ "type": "Feature", "properties": { "FID": 2, "name": "Семей", "name_en": "Semey", "place": "city", "population": "310456", "name_kk": "Семей", "name_ru": "Семей", "adm_type": "ОЦ", "settlement_id": "S2" }, "geometry": { "type": "Point", "coordinates": [ 80.2496637, 50.404377 ] } },
{ "type": "Feature", "properties": { "FID": 3, "name": "Атырау", "name_en": "Atyrau", "place": "city", "population": "323295", "name_kk": "Атырау", "name_ru": "Атырау", "adm_type": "ОЦ", "settlement_id": "S3" }, "geometry": { "type": "Point", "coordinates": [ 51.9138976, 47.1067183 ] } },
{ "type": "Feature", "properties": { "FID": 4, "name": "Форт-Шевченко", "name_en": "Fort-Shevchenko", "place": "city", "population": "8778", "name_kk": "Форт-Шевченко", "name_ru": "Форт-Шевченко", "adm_type": "РЦ", "settlement_id": "S4" }, "geometry": { "type": "Point", "coordinates": [ 50.261929, 44.508556 ] } },
{ "type": "Feature", "properties": { "FID": 5, "name": "Түркістан", "name_en": "Turkistan", "place": "city", "population": "228003", "name_kk": "Түркістан", "name_ru": "Туркестан", "adm_type": "ОЦ", "settlement_id": "S5" }, "geometry": { "type": "Point", "coordinates": [ 68.2703698, 43.3019457 ] } },
{ "type": "Feature", "properties": { "FID": 6, "name": "Тараз", "name_en": "Taraz", "place": "city", "population": "431160", "name_kk": "Тараз", "name_ru": "Тараз", "adm_type": "ОЦ", "settlement_id": "S6" }, "geometry": { "type": "Point", "coordinates": [ 71.3769302, 42.9015945 ] } },
{ "type": "Feature", "properties": { "FID": 7, "name": "Бауыржан Момышұлы ауылы", "name_en": " ", "place": "town", "population": "15436", "name_kk": "Бауыржан Момышұлы ауылы", "name_ru": "село имени Бауыржан Момышулы", "adm_type": "РЦ", "settlement_id": "S7" }, "geometry": { "type": "Point", "coordinates": [ 70.769516, 42.618401 ] } },
{ "type": "Feature", "properties": { "FID": 8, "name": "Қарағанды", "name_en": "Karaganda", "place": "city", "population": "520486", "name_kk": "Қарағанды", "name_ru": "Караганда", "adm_type": "ОЦ", "settlement_id": "S8" }, "geometry": { "type": "Point", "coordinates": [ 73.1026622, 49.8161282 ] } },
{ "type": "Feature", "properties": { "FID": 9, "name": "Павлодар", "name_en": "Pavlodar", "place": "city", "population": "334830", "name_kk": " ", "name_ru": "Павлодар", "adm_type": "ОЦ", "settlement_id": "S9" }, "geometry": { "type": "Point", "coordinates": [ 76.9455035, 52.2857573 ] } },
{ "type": "Feature", "properties": { "FID": 10, "name": "Өскемен", "name_en": "Oskemen", "place": "city", "population": "354770", "name_kk": "Өскемен", "name_ru": "Усть-Каменогорск", "adm_type": "ОЦ", "settlement_id": "S10" }, "geometry": { "type": "Point", "coordinates": [ 82.6274791, 49.9484438 ] } },
{ "type": "Feature", "properties": { "FID": 11, "name": "Ақтөбе", "name_en": "Aktobe", "place": "city", "population": "570452", "name_kk": "Ақтөбе", "name_ru": "Актобе", "adm_type": "ОЦ", "settlement_id": "S11" }, "geometry": { "type": "Point", "coordinates": [ 57.2298129, 50.2836938 ] } },
{ "type": "Feature", "properties": { "FID": 12, "name": "Теміртау", "name_en": "Temirtau", "place": "city", "population": "171609", "name_kk": "Теміртау", "name_ru": "Темиртау", "adm_type": "ГОЗ", "settlement_id": "S12" }, "geometry": { "type": "Point", "coordinates": [ 72.9535681, 50.0587825 ] } },
{ "type": "Feature", "properties": { "FID": 13, "name": "Қызылорда", "name_en": "Kyzylorda", "place": "city", "population": "281887", "name_kk": "Қызылорда", "name_ru": "Кызылорда", "adm_type": "ОЦ", "settlement_id": "S13" }, "geometry": { "type": "Point", "coordinates": [ 65.5036151, 44.8426778 ] } },
{ "type": "Feature", "properties": { "FID": 14, "name": "Көкшетау", "name_en": "Kokshetau", "place": "city", "population": "176849", "name_kk": "Көкшетау", "name_ru": "Кокшетау", "adm_type": "ОЦ", "settlement_id": "S14" }, "geometry": { "type": "Point", "coordinates": [ 69.3814676, 53.2852054 ] } },
{ "type": "Feature", "properties": { "FID": 15, "name": "Қонаев", "name_en": "Qonaev", "place": "city", "population": "56436", "name_kk": "Қонаев", "name_ru": "Конаев", "adm_type": "ОЦ", "settlement_id": "S15" }, "geometry": { "type": "Point", "coordinates": [ 77.0614587, 43.855174 ] } },
{ "type": "Feature", "properties": { "FID": 16, "name": "Қарабұлақ", "name_en": "Qarabulaq", "place": "town", "population": "19661", "name_kk": "Қарабұлақ", "name_ru": "Карабулак", "adm_type": "РЦ", "settlement_id": "S16" }, "geometry": { "type": "Point", "coordinates": [ 78.4911895, 44.908175 ] } },
{ "type": "Feature", "properties": { "FID": 17, "name": "Балпық би", "name_en": "Balpıq bï", "place": "town", "population": "17224", "name_kk": "Балпық би", "name_ru": "Балпык-Би", "adm_type": "РЦ", "settlement_id": "S17" }, "geometry": { "type": "Point", "coordinates": [ 78.23307, 44.901318 ] } },
{ "type": "Feature", "properties": { "FID": 18, "name": "Жаркент", "name_en": "Zharkent", "place": "city", "population": "53144", "name_kk": "Жаркент", "name_ru": "Жаркент", "adm_type": "РЦ", "settlement_id": "S18" }, "geometry": { "type": "Point", "coordinates": [ 80.002739, 44.165665 ] } },
{ "type": "Feature", "properties": { "FID": 19, "name": "Есік", "name_en": "Esik", "place": "city", "population": "41517", "name_kk": "Есік", "name_ru": "Есик", "adm_type": "РЦ", "settlement_id": "S19" }, "geometry": { "type": "Point", "coordinates": [ 77.465919, 43.359486 ] } },
{ "type": "Feature", "properties": { "FID": 20, "name": "Балқаш", "name_en": "Balqaş", "place": "city", "population": "73450", "name_kk": "Балқаш", "name_ru": "Балхаш", "adm_type": "ГОЗ", "settlement_id": "S20" }, "geometry": { "type": "Point", "coordinates": [ 74.9773285, 46.8433208 ] } },
{ "type": "Feature", "properties": { "FID": 21, "name": "Сарқан", "name_en": "Sarqan", "place": "city", "population": "17939", "name_kk": "Сарқан", "name_ru": "Саркан", "adm_type": "РЦ", "settlement_id": "S21" }, "geometry": { "type": "Point", "coordinates": [ 79.9155159, 45.4109229 ] } },
{ "type": "Feature", "properties": { "FID": 22, "name": "Қалбатау", "name_en": "Qalbatau", "place": "village", "population": "10753", "name_kk": "Қалбатау", "name_ru": "Калбатау", "adm_type": "РЦ", "settlement_id": "S22" }, "geometry": { "type": "Point", "coordinates": [ 81.5706733, 49.3302177 ] } },
{ "type": "Feature", "properties": { "FID": 23, "name": "Алтай", "name_en": "Altai", "place": "city", "population": "35746", "name_kk": "Алтай", "name_ru": "Алтай", "adm_type": "РЦ", "settlement_id": "S23" }, "geometry": { "type": "Point", "coordinates": [ 84.275146, 49.724243 ] } },
{ "type": "Feature", "properties": { "FID": 24, "name": "Меркі", "name_en": "Merki", "place": "town", "population": "17133", "name_kk": "Меркі", "name_ru": "Мерке", "adm_type": "РЦ", "settlement_id": "S24" }, "geometry": { "type": "Point", "coordinates": [ 73.1861106, 42.8651436 ] } },
{ "type": "Feature", "properties": { "FID": 25, "name": "Леңгір", "name_en": "Leñgir", "place": "city", "population": "34145", "name_kk": "Леңгір", "name_ru": "Ленгер", "adm_type": "РЦ", "settlement_id": "S25" }, "geometry": { "type": "Point", "coordinates": [ 69.88755, 42.181854 ] } },
{ "type": "Feature", "properties": { "FID": 26, "name": "Мырзакент", "name_en": " ", "place": "town", "population": "17487", "name_kk": "Мырзакент", "name_ru": "Мырзакент", "adm_type": "РЦ", "settlement_id": "S26" }, "geometry": { "type": "Point", "coordinates": [ 68.5499388, 40.6654425 ] } },
{ "type": "Feature", "properties": { "FID": 27, "name": "Көкпекті", "name_en": " ", "place": "village", "population": "5103", "name_kk": "Көкпекті", "name_ru": "Кокпекты", "adm_type": "РЦ", "settlement_id": "S27" }, "geometry": { "type": "Point", "coordinates": [ 82.3826094, 48.7558184 ] } },
{ "type": "Feature", "properties": { "FID": 28, "name": "Риддер", "name_en": "Ridder", "place": "city", "population": "45072", "name_kk": "Риддер", "name_ru": "Риддер", "adm_type": "ГОЗ", "settlement_id": "S28" }, "geometry": { "type": "Point", "coordinates": [ 83.506157, 50.338932 ] } },
{ "type": "Feature", "properties": { "FID": 29, "name": "Қордай", "name_en": "Qorday", "place": "town", "population": "39288", "name_kk": "Қордай", "name_ru": "Кордай", "adm_type": "РЦ", "settlement_id": "S29" }, "geometry": { "type": "Point", "coordinates": [ 74.714485, 43.042965 ] } },
{ "type": "Feature", "properties": { "FID": 30, "name": "Сарыағаш", "name_en": "Sarıağaş", "place": "city", "population": "62215", "name_kk": "Сарыағаш", "name_ru": "Сарыагаш", "adm_type": "РЦ", "settlement_id": "S30" }, "geometry": { "type": "Point", "coordinates": [ 69.1830754, 41.4700321 ] } },
{ "type": "Feature", "properties": { "FID": 31, "name": "Мақат", "name_en": "Maqat", "place": "town", "population": "13939", "name_kk": "Мақат", "name_ru": "Макат", "adm_type": "РЦ", "settlement_id": "S31" }, "geometry": { "type": "Point", "coordinates": [ 53.350528, 47.6471515 ] } },
{ "type": "Feature", "properties": { "FID": 32, "name": "Индербор", "name_en": "Inderbor", "place": "town", "population": "16117", "name_kk": "Индербор", "name_ru": "Индерборский", "adm_type": "РЦ", "settlement_id": "S32" }, "geometry": { "type": "Point", "coordinates": [ 51.7478775, 48.5610249 ] } },
{ "type": "Feature", "properties": { "FID": 33, "name": "Жаңаөзен", "name_en": "Zhanaozen", "place": "city", "population": "75604", "name_kk": "Жаңаөзен", "name_ru": "Жанаозен", "adm_type": "ГОЗ", "settlement_id": "S33" }, "geometry": { "type": "Point", "coordinates": [ 52.8556219, 43.3381034 ] } },
{ "type": "Feature", "properties": { "FID": 34, "name": "Құлсары", "name_en": "Qulsarı", "place": "city", "population": "66580", "name_kk": "Құлсары", "name_ru": "Кульсары", "adm_type": "РЦ", "settlement_id": "S34" }, "geometry": { "type": "Point", "coordinates": [ 54.0129176, 46.9621483 ] } },
{ "type": "Feature", "properties": { "FID": 35, "name": "Махамбет", "name_en": "Makhambet", "place": "town", "population": "11072", "name_kk": "Махамбет", "name_ru": "Махамбет", "adm_type": "РЦ", "settlement_id": "S35" }, "geometry": { "type": "Point", "coordinates": [ 51.5865434, 47.675577 ] } },
{ "type": "Feature", "properties": { "FID": 36, "name": "Сәтбаев", "name_en": "Sätbaev", "place": "city", "population": "68740", "name_kk": "Сәтбаев", "name_ru": "Сатпаев", "adm_type": "ГОЗ", "settlement_id": "S36" }, "geometry": { "type": "Point", "coordinates": [ 67.530579, 47.904949 ] } },
{ "type": "Feature", "properties": { "FID": 37, "name": "Қорғалжын", "name_en": "Qorğaljın", "place": "village", "population": "3222", "name_kk": "Қорғалжын", "name_ru": "Коргалжын", "adm_type": "РЦ", "settlement_id": "S37" }, "geometry": { "type": "Point", "coordinates": [ 70.0179587, 50.5837125 ] } },
{ "type": "Feature", "properties": { "FID": 38, "name": "Жаңаарқа", "name_en": "Jañaarqa", "place": "town", "population": "17528", "name_kk": "Жаңаарқа", "name_ru": "Жанаарка", "adm_type": "РЦ", "settlement_id": "S38" }, "geometry": { "type": "Point", "coordinates": [ 71.6355854, 48.6861721 ] } },
{ "type": "Feature", "properties": { "FID": 39, "name": "Саран", "name_en": "Saran", "place": "city", "population": "34507", "name_kk": "Саран", "name_ru": "Сарань", "adm_type": "ГОЗ", "settlement_id": "S39" }, "geometry": { "type": "Point", "coordinates": [ 72.8285112, 49.8017081 ] } },
{ "type": "Feature", "properties": { "FID": 40, "name": "Ерейментау", "name_en": "Ereymentaw", "place": "city", "population": "12652", "name_kk": "Ерейментау", "name_ru": "Ерейментау", "adm_type": "РЦ", "settlement_id": "S40" }, "geometry": { "type": "Point", "coordinates": [ 73.103348, 51.619881 ] } },
{ "type": "Feature", "properties": { "FID": 41, "name": "Абай", "name_en": "Abay", "place": "city", "population": "28722", "name_kk": " ", "name_ru": "Абай", "adm_type": "РЦ", "settlement_id": "S41" }, "geometry": { "type": "Point", "coordinates": [ 72.8722067, 49.6299017 ] } },
{ "type": "Feature", "properties": { "FID": 42, "name": "Арқалық", "name_en": "Arkalyk", "place": "city", "population": "28334", "name_kk": "Арқалық", "name_ru": "Аркалык", "adm_type": "ГОЗ", "settlement_id": "S42" }, "geometry": { "type": "Point", "coordinates": [ 66.914993, 50.253281 ] } },
{ "type": "Feature", "properties": { "FID": 43, "name": "Әулиекөл", "name_en": "Auliekol", "place": "village", "population": "10961", "name_kk": "Әулиекөл", "name_ru": "Аулиеколь", "adm_type": "РЦ", "settlement_id": "S43" }, "geometry": { "type": "Point", "coordinates": [ 64.133171, 52.361904 ] } },
{ "type": "Feature", "properties": { "FID": 44, "name": "Степногорск", "name_en": "Stepnogorsk", "place": "city", "population": "49116", "name_kk": "Степногорск", "name_ru": "Степногорск", "adm_type": "ГОЗ", "settlement_id": "S44" }, "geometry": { "type": "Point", "coordinates": [ 71.880493, 52.346371 ] } },
{ "type": "Feature", "properties": { "FID": 45, "name": "Степняк", "name_en": "Stepnyak", "place": "city", "population": "4212", "name_kk": "Степняк", "name_ru": "Степняк", "adm_type": "РЦ", "settlement_id": "S45" }, "geometry": { "type": "Point", "coordinates": [ 70.7869386, 52.8312787 ] } },
{ "type": "Feature", "properties": { "FID": 46, "name": "Үлкен Нарын", "name_en": "Ülken Narın", "place": "town", "population": "5073", "name_kk": "Үлкен Нарын", "name_ru": "Улкен Нарын", "adm_type": "РЦ", "settlement_id": "S46" }, "geometry": { "type": "Point", "coordinates": [ 84.508766, 49.213886 ] } },
{ "type": "Feature", "properties": { "FID": 47, "name": "Бородулиха", "name_en": " ", "place": "village", "population": "5912", "name_kk": "Бородулиха", "name_ru": "Бородулиха", "adm_type": "РЦ", "settlement_id": "S47" }, "geometry": { "type": "Point", "coordinates": [ 80.9340577, 50.7207116 ] } },
{ "type": "Feature", "properties": { "FID": 48, "name": "Алға", "name_en": "Alğa", "place": "city", "population": "22798", "name_kk": "Алға", "name_ru": "Алга", "adm_type": "РЦ", "settlement_id": "S48" }, "geometry": { "type": "Point", "coordinates": [ 57.330296, 49.896259 ] } },
{ "type": "Feature", "properties": { "FID": 49, "name": "Сайқын", "name_en": "Saykyn", "place": "town", "population": "4457", "name_kk": "Сайқын", "name_ru": "Сайхин", "adm_type": "РЦ", "settlement_id": "S49" }, "geometry": { "type": "Point", "coordinates": [ 46.768414, 48.813747 ] } },
{ "type": "Feature", "properties": { "FID": 50, "name": "Чапаев", "name_en": " ", "place": "village", "population": "9701", "name_kk": "Чапаев", "name_ru": "Чапаев", "adm_type": "РЦ", "settlement_id": "S50" }, "geometry": { "type": "Point", "coordinates": [ 51.1716191, 50.1878581 ] } },
{ "type": "Feature", "properties": { "FID": 51, "name": "Қарауыл", "name_en": " ", "place": "village", "population": "5717", "name_kk": "Қарауыл", "name_ru": "Карааул", "adm_type": "РЦ", "settlement_id": "S51" }, "geometry": { "type": "Point", "coordinates": [ 79.254616, 48.949196 ] } },
{ "type": "Feature", "properties": { "FID": 52, "name": "Успенка", "name_en": " ", "place": "village", "population": "4496", "name_kk": "Успенка", "name_ru": "Успенка", "adm_type": "РЦ", "settlement_id": "S52" }, "geometry": { "type": "Point", "coordinates": [ 77.4185813, 52.9072094 ] } },
{ "type": "Feature", "properties": { "FID": 53, "name": "Тайынша", "name_en": "Taiynsha", "place": "city", "population": "13037", "name_kk": "Тайынша", "name_ru": "Тайынша", "adm_type": "РЦ", "settlement_id": "S53" }, "geometry": { "type": "Point", "coordinates": [ 69.761436, 53.847736 ] } },
{ "type": "Feature", "properties": { "FID": 54, "name": "Үштөбе", "name_en": "Ushtobe", "place": "city", "population": "19243", "name_kk": "Үштөбе", "name_ru": "Уштобе", "adm_type": "РЦ", "settlement_id": "S54" }, "geometry": { "type": "Point", "coordinates": [ 77.9838119, 45.2513771 ] } },
{ "type": "Feature", "properties": { "FID": 55, "name": "Күршім", "name_en": "Kurshim", "place": "village", "population": "8347", "name_kk": "Күршім", "name_ru": "Курчум", "adm_type": "РЦ", "settlement_id": "S55" }, "geometry": { "type": "Point", "coordinates": [ 83.6524237, 48.5656876 ] } },
{ "type": "Feature", "properties": { "FID": 56, "name": "Самарское", "name_en": " ", "place": "village", "population": "5736", "name_kk": "Самарское", "name_ru": "Самарское", "adm_type": "РЦ", "settlement_id": "S56" }, "geometry": { "type": "Point", "coordinates": [ 83.3657624, 49.0204442 ] } },
{ "type": "Feature", "properties": { "FID": 57, "name": "Бесқарағай", "name_en": " ", "place": "village", "population": "4765", "name_kk": "Бесқарағай", "name_ru": "Бескарагай", "adm_type": "РЦ", "settlement_id": "S57" }, "geometry": { "type": "Point", "coordinates": [ 79.480721, 50.888058 ] } },
{ "type": "Feature", "properties": { "FID": 58, "name": "Екібастұз", "name_en": "Ekibastuz", "place": "city", "population": "128551", "name_kk": "Екібастұз", "name_ru": "Экибастуз", "adm_type": "ГОЗ", "settlement_id": "S58" }, "geometry": { "type": "Point", "coordinates": [ 75.3288511, 51.7275817 ] } },
{ "type": "Feature", "properties": { "FID": 59, "name": "Ақтау", "name_en": "Aktau", "place": "city", "population": "273830", "name_kk": "Ақтау", "name_ru": "Актау", "adm_type": "ОЦ", "settlement_id": "S59" }, "geometry": { "type": "Point", "coordinates": [ 51.168222, 43.6353364 ] } },
{ "type": "Feature", "properties": { "FID": 60, "name": "Ұзынағаш", "name_en": "Uzynagash", "place": "town", "population": "48602", "name_kk": "Ұзынағаш", "name_ru": "Узынагаш", "adm_type": "РЦ", "settlement_id": "S60" }, "geometry": { "type": "Point", "coordinates": [ 76.3159728, 43.2118387 ] } },
{ "type": "Feature", "properties": { "FID": 61, "name": "Шәуілдір", "name_en": "Shauildir", "place": "town", "population": "10503", "name_kk": "Шәуілдір", "name_ru": "Шаульдер", "adm_type": "РЦ", "settlement_id": "S61" }, "geometry": { "type": "Point", "coordinates": [ 68.3709214, 42.7869666 ] } },
{ "type": "Feature", "properties": { "FID": 62, "name": "Шолаққорған", "name_en": " ", "place": "town", "population": "19704", "name_kk": "Шолаққорған", "name_ru": "Шолаккорган", "adm_type": "РЦ", "settlement_id": "S62" }, "geometry": { "type": "Point", "coordinates": [ 69.17688, 43.766701 ] } },
{ "type": "Feature", "properties": { "FID": 63, "name": "Егіндікөл", "name_en": " ", "place": "village", "population": "2820", "name_kk": "Егіндікөл", "name_ru": "Егиндыколь", "adm_type": "РЦ", "settlement_id": "S63" }, "geometry": { "type": "Point", "coordinates": [ 69.4801963, 51.0516007 ] } },
{ "type": "Feature", "properties": { "FID": 64, "name": "Щучинск", "name_en": "Shchuchinsk", "place": "city", "population": "46744", "name_kk": "Щучинск", "name_ru": "Щучинск", "adm_type": "РЦ", "settlement_id": "S64" }, "geometry": { "type": "Point", "coordinates": [ 70.1857634, 52.9387457 ] } },
{ "type": "Feature", "properties": { "FID": 65, "name": "Тұрар Рысқұлов ауылы", "name_en": " ", "place": "town", "population": "25722", "name_kk": "Тұрар Рысқұлов ауылы", "name_ru": "Село имени Турара Рыскулова", "adm_type": "РЦ", "settlement_id": "S65" }, "geometry": { "type": "Point", "coordinates": [ 70.3501763, 42.5344182 ] } },
{ "type": "Feature", "properties": { "FID": 66, "name": "Тереңөзек", "name_en": "Terenozek", "place": "town", "population": "11647", "name_kk": "Тереңөзек", "name_ru": "Теренозек", "adm_type": "РЦ", "settlement_id": "S66" }, "geometry": { "type": "Point", "coordinates": [ 64.9843937, 45.047338 ] } },
{ "type": "Feature", "properties": { "FID": 67, "name": "Перемётное", "name_en": "Peremetnoe", "place": "town", "population": "4440", "name_kk": "Перемётное", "name_ru": "Перемётное", "adm_type": "РЦ", "settlement_id": "S67" }, "geometry": { "type": "Point", "coordinates": [ 50.8682222, 51.2048487 ] } },
{ "type": "Feature", "properties": { "FID": 68, "name": "Глубокое", "name_en": " ", "place": "village", "population": "10679", "name_kk": "Глубокое", "name_ru": "Глубокое", "adm_type": "РЦ", "settlement_id": "S68" }, "geometry": { "type": "Point", "coordinates": [ 82.3169517, 50.1438305 ] } },
{ "type": "Feature", "properties": { "FID": 69, "name": "Тасқала", "name_en": "Taskala", "place": "town", "population": "8135", "name_kk": "Тасқала", "name_ru": "Таскала", "adm_type": "РЦ", "settlement_id": "S69" }, "geometry": { "type": "Point", "coordinates": [ 50.291088, 51.106861 ] } },
{ "type": "Feature", "properties": { "FID": 70, "name": "Нұра", "name_en": "Nura", "place": "village", "population": "6533", "name_kk": "Нұра", "name_ru": "Нура", "adm_type": "РЦ", "settlement_id": "S70" }, "geometry": { "type": "Point", "coordinates": [ 71.5527472, 50.2606707 ] } },
{ "type": "Feature", "properties": { "FID": 71, "name": "Бадамша", "name_en": "Badamşa", "place": "town", "population": "5967", "name_kk": "Бадамша", "name_ru": "Бадамша", "adm_type": "РЦ", "settlement_id": "S71" }, "geometry": { "type": "Point", "coordinates": [ 58.283154, 50.562958 ] } },
{ "type": "Feature", "properties": { "FID": 72, "name": "Теректі", "name_en": "Terekti", "place": "village", "population": "5148", "name_kk": "Теректі", "name_ru": "Теректы", "adm_type": "РЦ", "settlement_id": "S72" }, "geometry": { "type": "Point", "coordinates": [ 51.962719, 51.222443 ] } },
{ "type": "Feature", "properties": { "FID": 73, "name": "Ақтоғай", "name_en": " ", "place": "village", "population": "4495", "name_kk": "Ақтоғай", "name_ru": "Актогай", "adm_type": "РЦ", "settlement_id": "S73" }, "geometry": { "type": "Point", "coordinates": [ 75.9807476, 53.0098041 ] } },
{ "type": "Feature", "properties": { "FID": 74, "name": "Железинка", "name_en": " ", "place": "village", "population": "5438", "name_kk": "Железинка", "name_ru": "Железинка", "adm_type": "РЦ", "settlement_id": "S74" }, "geometry": { "type": "Point", "coordinates": [ 75.3129714, 53.5379935 ] } },
{ "type": "Feature", "properties": { "FID": 75, "name": "Қобда", "name_en": "Qobda", "place": "town", "population": "6029", "name_kk": "Қобда", "name_ru": "Кобда", "adm_type": "РЦ", "settlement_id": "S75" }, "geometry": { "type": "Point", "coordinates": [ 55.6679179, 50.1521793 ] } },
{ "type": "Feature", "properties": { "FID": 76, "name": "Қасым Қайсенов кенті", "name_en": " ", "place": "town", "population": "6736", "name_kk": "Қасым Қайсенов кенті", "name_ru": "Посёлок Касыма Кайсенова", "adm_type": "РЦ", "settlement_id": "S76" }, "geometry": { "type": "Point", "coordinates": [ 82.4875024, 49.8755707 ] } },
{ "type": "Feature", "properties": { "FID": 77, "name": "Амангелді", "name_en": "Amangeldi", "place": "town", "population": "6695", "name_kk": "Амангелді", "name_ru": "Амангельды", "adm_type": "РЦ", "settlement_id": "S77" }, "geometry": { "type": "Point", "coordinates": [ 65.1942135, 50.1806755 ] } },
{ "type": "Feature", "properties": { "FID": 78, "name": "Тобыл", "name_en": " ", "place": "town", "population": "28586", "name_kk": "Тобыл", "name_ru": "Тобыл", "adm_type": "РЦ", "settlement_id": "S78" }, "geometry": { "type": "Point", "coordinates": [ 63.70311, 53.207062 ] } },
{ "type": "Feature", "properties": { "FID": 79, "name": "Кішкенекөл", "name_en": "Kişkeneköl", "place": "village", "population": "6590", "name_kk": "Кішкенекөл", "name_ru": "Кишкенеколь", "adm_type": "РЦ", "settlement_id": "S79" }, "geometry": { "type": "Point", "coordinates": [ 72.3411085, 53.6357326 ] } },
{ "type": "Feature", "properties": { "FID": 80, "name": "Шарбақты", "name_en": "Şarbaqtı", "place": "village", "population": "8125", "name_kk": "Шарбақты", "name_ru": "Шарбакты", "adm_type": "РЦ", "settlement_id": "S80" }, "geometry": { "type": "Point", "coordinates": [ 78.159375, 52.4894141 ] } },
{ "type": "Feature", "properties": { "FID": 81, "name": "Баянауыл", "name_en": " ", "place": "village", "population": "5979", "name_kk": "Баянауыл", "name_ru": "Баянаул", "adm_type": "РЦ", "settlement_id": "S81" }, "geometry": { "type": "Point", "coordinates": [ 75.702764, 50.7928518 ] } },
{ "type": "Feature", "properties": { "FID": 82, "name": "Көктөбе", "name_en": "Köktöbe", "place": "village", "population": "4008", "name_kk": "Көктөбе", "name_ru": "Коктобе", "adm_type": "РЦ", "settlement_id": "S82" }, "geometry": { "type": "Point", "coordinates": [ 77.4680696, 51.5303291 ] } },
{ "type": "Feature", "properties": { "FID": 83, "name": "Ақжар", "name_en": " ", "place": "village", "population": "5771", "name_kk": "Ақжар", "name_ru": "Акжар", "adm_type": "РЦ", "settlement_id": "S83" }, "geometry": { "type": "Point", "coordinates": [ 83.689468, 47.582851 ] } },
{ "type": "Feature", "properties": { "FID": 84, "name": "Ертіс", "name_en": "Ertis", "place": "town", "population": "7965", "name_kk": "Ертіс", "name_ru": "Иртышск", "adm_type": "РЦ", "settlement_id": "S84" }, "geometry": { "type": "Point", "coordinates": [ 75.4584153, 53.3325963 ] } },
{ "type": "Feature", "properties": { "FID": 85, "name": "Темірлан", "name_en": "Temirlan", "place": "village", "population": "18517", "name_kk": "Темірлан", "name_ru": "Темирлановка", "adm_type": "РЦ", "settlement_id": "S85" }, "geometry": { "type": "Point", "coordinates": [ 69.2581088, 42.5999908 ] } },
{ "type": "Feature", "properties": { "FID": 86, "name": "Қаратөбе", "name_en": "Qaratöbe", "place": "town", "population": "4143", "name_kk": "Қаратөбе", "name_ru": "Каратобе", "adm_type": "РЦ", "settlement_id": "S86" }, "geometry": { "type": "Point", "coordinates": [ 53.506786, 49.690926 ] } },
{ "type": "Feature", "properties": { "FID": 87, "name": "Мойынқұм", "name_en": "Moyınqum", "place": "village", "population": "8683", "name_kk": "Мойынқұм", "name_ru": "Мойынкум", "adm_type": "РЦ", "settlement_id": "S87" }, "geometry": { "type": "Point", "coordinates": [ 72.94297, 44.28545 ] } },
{ "type": "Feature", "properties": { "FID": 88, "name": "Сарыкемер", "name_en": "Sarykemer", "place": "village", "population": "32964", "name_kk": "Сарыкемер", "name_ru": "Сарыкемер", "adm_type": "РЦ", "settlement_id": "S88" }, "geometry": { "type": "Point", "coordinates": [ 71.512039, 43.000439 ] } },
{ "type": "Feature", "properties": { "FID": 89, "name": "Осакаровка", "name_en": "Osakarovka", "place": "village", "population": "8930", "name_kk": " ", "name_ru": "Осакаровка", "adm_type": "РЦ", "settlement_id": "S89" }, "geometry": { "type": "Point", "coordinates": [ 72.5813736, 50.5606688 ] } },
{ "type": "Feature", "properties": { "FID": 90, "name": "Смирново", "name_en": " ", "place": "village", "population": "5650", "name_kk": "Смирново", "name_ru": "Смирново", "adm_type": "РЦ", "settlement_id": "S90" }, "geometry": { "type": "Point", "coordinates": [ 69.419189, 54.51453 ] } },
{ "type": "Feature", "properties": { "FID": 91, "name": "Шорнақ", "name_en": " ", "place": "village", "population": "4324", "name_kk": "Шорнақ", "name_ru": "Шорнак", "adm_type": "РЦ", "settlement_id": "S91" }, "geometry": { "type": "Point", "coordinates": [ 68.0236546, 43.3952837 ] } },
{ "type": "Feature", "properties": { "FID": 92, "name": "Шаян", "name_en": " ", "place": "village", "population": "10246", "name_kk": "Шаян", "name_ru": "Шаян", "adm_type": "РЦ", "settlement_id": "S92" }, "geometry": { "type": "Point", "coordinates": [ 69.380745, 43.032307 ] } },
{ "type": "Feature", "properties": { "FID": 93, "name": "Шыңғырлау", "name_en": " ", "place": "town", "population": "7663", "name_kk": "Шыңғырлау", "name_ru": "Шынгырлау", "adm_type": "РЦ", "settlement_id": "S93" }, "geometry": { "type": "Point", "coordinates": [ 54.085167, 51.100506 ] } },
{ "type": "Feature", "properties": { "FID": 94, "name": "Жәнібек", "name_en": " ", "place": "town", "population": "7530", "name_kk": "Жәнібек", "name_ru": "Жанибек", "adm_type": "РЦ", "settlement_id": "S94" }, "geometry": { "type": "Point", "coordinates": [ 46.8517166, 49.4230074 ] } },
{ "type": "Feature", "properties": { "FID": 95, "name": "Жымпиты", "name_en": " ", "place": "town", "population": "5970", "name_kk": "Жымпиты", "name_ru": "Жымпиты", "adm_type": "РЦ", "settlement_id": "S95" }, "geometry": { "type": "Point", "coordinates": [ 52.6010876, 50.260317 ] } },
{ "type": "Feature", "properties": { "FID": 96, "name": "Төле би", "name_en": " ", "place": "village", "population": "19845", "name_kk": "Төле би", "name_ru": "Толе би", "adm_type": "РЦ", "settlement_id": "S96" }, "geometry": { "type": "Point", "coordinates": [ 73.762444, 43.681767 ] } },
{ "type": "Feature", "properties": { "FID": 97, "name": "Ақтоғай", "name_en": " ", "place": "village", "population": "3337", "name_kk": "Ақтоғай", "name_ru": "Актогай", "adm_type": "РЦ", "settlement_id": "S97" }, "geometry": { "type": "Point", "coordinates": [ 74.9799914, 48.3196789 ] } },
{ "type": "Feature", "properties": { "FID": 98, "name": "Ботақара", "name_en": " ", "place": "town", "population": "6387", "name_kk": "Ботақара", "name_ru": "Ботакара", "adm_type": "РЦ", "settlement_id": "S98" }, "geometry": { "type": "Point", "coordinates": [ 73.716709, 50.0596912 ] } },
{ "type": "Feature", "properties": { "FID": 99, "name": "Ақсу-Аюлы", "name_en": " ", "place": "village", "population": "5009", "name_kk": "Ақсу-Аюлы", "name_ru": "Аксу-Аюлы", "adm_type": "РЦ", "settlement_id": "S99" }, "geometry": { "type": "Point", "coordinates": [ 73.6740332, 48.7655707 ] } },
{ "type": "Feature", "properties": { "FID": 100, "name": "Пресновка", "name_en": "Presnovka", "place": "village", "population": "6202", "name_kk": "Пресновка", "name_ru": "Пресновка", "adm_type": "РЦ", "settlement_id": "S100" }, "geometry": { "type": "Point", "coordinates": [ 67.1452217, 54.6686113 ] } },
{ "type": "Feature", "properties": { "FID": 101, "name": "Боровской", "name_en": "Borovskoy", "place": "town", "population": "8908", "name_kk": "Боровской", "name_ru": "Боровской", "adm_type": "РЦ", "settlement_id": "S101" }, "geometry": { "type": "Point", "coordinates": [ 64.1758398, 53.8058865 ] } },
{ "type": "Feature", "properties": { "FID": 102, "name": "Шұбарқұдық", "name_en": " ", "place": "town", "population": "14348", "name_kk": "Шұбарқұдық", "name_ru": "Шубаркудук", "adm_type": "РЦ", "settlement_id": "S102" }, "geometry": { "type": "Point", "coordinates": [ 56.4820258, 49.1431517 ] } },
{ "type": "Feature", "properties": { "FID": 103, "name": "Балкашино", "name_en": " ", "place": "village", "population": "4544", "name_kk": "Балкашино", "name_ru": "Балкашино", "adm_type": "РЦ", "settlement_id": "S103" }, "geometry": { "type": "Point", "coordinates": [ 68.7533243, 52.520611 ] } },
{ "type": "Feature", "properties": { "FID": 104, "name": "Қарауылкелді", "name_en": " ", "place": "town", "population": "11349", "name_kk": "Қарауылкелді", "name_ru": "Карауылкелды", "adm_type": "РЦ", "settlement_id": "S104" }, "geometry": { "type": "Point", "coordinates": [ 55.8772348, 48.6935886 ] } },
{ "type": "Feature", "properties": { "FID": 105, "name": "Темірбек Жүргенов ауылы", "name_en": "Temirbek Jürgenov village", "place": "town", "population": "7292", "name_kk": "Темірбек Жүргенов ауылы", "name_ru": "Село Темирбека Жургенова", "adm_type": "РЦ", "settlement_id": "S105" }, "geometry": { "type": "Point", "coordinates": [ 60.4966174, 50.4309128 ] } },
{ "type": "Feature", "properties": { "FID": 106, "name": "Құрық", "name_en": " ", "place": "town", "population": "11565", "name_kk": "Құрық", "name_ru": "Курык", "adm_type": "РЦ", "settlement_id": "S106" }, "geometry": { "type": "Point", "coordinates": [ 51.6796799, 43.176664 ] } },
{ "type": "Feature", "properties": { "FID": 107, "name": "Аршалы", "name_en": "Arshaly", "place": "town", "population": "7909", "name_kk": " ", "name_ru": "Аршалы", "adm_type": "РЦ", "settlement_id": "S107" }, "geometry": { "type": "Point", "coordinates": [ 72.1811626, 50.8304142 ] } },
{ "type": "Feature", "properties": { "FID": 108, "name": "Ырғыз", "name_en": "Yrgyz", "place": "town", "population": "6842", "name_kk": "Ырғыз", "name_ru": "Иргиз", "adm_type": "РЦ", "settlement_id": "S108" }, "geometry": { "type": "Point", "coordinates": [ 61.263981, 48.617874 ] } },
{ "type": "Feature", "properties": { "FID": 109, "name": "Мәртөк", "name_en": "Martuk", "place": "town", "population": "10760", "name_kk": "Мәртөк", "name_ru": "Мартук", "adm_type": "РЦ", "settlement_id": "S109" }, "geometry": { "type": "Point", "coordinates": [ 56.4995791, 50.7443222 ] } },
{ "type": "Feature", "properties": { "FID": 110, "name": "Ойыл", "name_en": " ", "place": "town", "population": "6579", "name_kk": "Ойыл", "name_ru": "Уил", "adm_type": "РЦ", "settlement_id": "S110" }, "geometry": { "type": "Point", "coordinates": [ 54.662738, 49.0724892 ] } },
{ "type": "Feature", "properties": { "FID": 111, "name": "Құрманғазы", "name_en": "Kurmangazy", "place": "town", "population": "14592", "name_kk": "Құрманғазы", "name_ru": "Курмангазы", "adm_type": "РЦ", "settlement_id": "S111" }, "geometry": { "type": "Point", "coordinates": [ 49.2701849, 46.6046814 ] } },
{ "type": "Feature", "properties": { "FID": 112, "name": "Қамысты", "name_en": "Qamysty", "place": "village", "population": "4689", "name_kk": "Қамысты", "name_ru": "Камысты", "adm_type": "РЦ", "settlement_id": "S112" }, "geometry": { "type": "Point", "coordinates": [ 61.779518, 51.963688 ] } },
{ "type": "Feature", "properties": { "FID": 113, "name": "Қарамеңді", "name_en": "Qaramendi", "place": "town", "population": "3965", "name_kk": "Қарамеңді", "name_ru": "Караменды", "adm_type": "РЦ", "settlement_id": "S113" }, "geometry": { "type": "Point", "coordinates": [ 64.222992, 51.657513 ] } },
{ "type": "Feature", "properties": { "FID": 114, "name": "Марқакөл", "name_en": "Marqaköl", "place": "village", "population": "2757", "name_kk": "Марқакөл", "name_ru": "Маркаколь", "adm_type": "РЦ", "settlement_id": "S114" }, "geometry": { "type": "Point", "coordinates": [ 85.7338403, 48.4269057 ] } },
{ "type": "Feature", "properties": { "FID": 115, "name": "Жаңақорған", "name_en": "Jañaqorğan", "place": "town", "population": "33639", "name_kk": "Жаңақорған", "name_ru": "Жанакорган", "adm_type": "РЦ", "settlement_id": "S115" }, "geometry": { "type": "Point", "coordinates": [ 67.249458, 43.909836 ] } },
{ "type": "Feature", "properties": { "FID": 116, "name": "Жаңақала", "name_en": " ", "place": "town", "population": "9767", "name_kk": "Жаңақала", "name_ru": "Жангала", "adm_type": "РЦ", "settlement_id": "S116" }, "geometry": { "type": "Point", "coordinates": [ 50.3002269, 49.2131283 ] } },
{ "type": "Feature", "properties": { "FID": 117, "name": "Бейнеу", "name_en": " ", "place": "town", "population": "57990", "name_kk": "Бейнеу", "name_ru": "Бейнеу", "adm_type": "РЦ", "settlement_id": "S117" }, "geometry": { "type": "Point", "coordinates": [ 55.186226, 45.321377 ] } },
{ "type": "Feature", "properties": { "FID": 118, "name": "Шиелі", "name_en": "Şïeli", "place": "town", "population": "37258", "name_kk": "Шиелі", "name_ru": "Шиели", "adm_type": "РЦ", "settlement_id": "S118" }, "geometry": { "type": "Point", "coordinates": [ 66.740959, 44.176025 ] } },
{ "type": "Feature", "properties": { "FID": 119, "name": " ", "name_en": "Ötegen batyr", "place": "village", "population": "32699", "name_kk": "Өтеген батыр", "name_ru": "Отеген Батыр", "adm_type": "РЦ", "settlement_id": "S119" }, "geometry": { "type": "Point", "coordinates": [ 77.017482, 43.4162574 ] } },
{ "type": "Feature", "properties": { "FID": 120, "name": "Бескөл", "name_en": " ", "place": "village", "population": "13149", "name_kk": "Бескөл", "name_ru": "Бесколь", "adm_type": "РЦ", "settlement_id": "S120" }, "geometry": { "type": "Point", "coordinates": [ 69.097794, 54.775146 ] } },
{ "type": "Feature", "properties": { "FID": 121, "name": "Явленка", "name_en": "Yavlenka", "place": "village", "population": "5928", "name_kk": "Явленка", "name_ru": "Явленка", "adm_type": "РЦ", "settlement_id": "S121" }, "geometry": { "type": "Point", "coordinates": [ 68.4566996, 54.3462508 ] } },
{ "type": "Feature", "properties": { "FID": 122, "name": "Тимирязево", "name_en": " ", "place": "village", "population": "3998", "name_kk": "Тимирязево", "name_ru": "Тимирязево", "adm_type": "РЦ", "settlement_id": "S122" }, "geometry": { "type": "Point", "coordinates": [ 66.4954458, 53.7481615 ] } },
{ "type": "Feature", "properties": { "FID": 123, "name": "Обаған", "name_en": " ", "place": "village", "population": "539", "name_kk": "Обаған", "name_ru": "Убаганское", "adm_type": "РЦ", "settlement_id": "S123" }, "geometry": { "type": "Point", "coordinates": [ 64.293419, 53.080231 ] } },
{ "type": "Feature", "properties": { "FID": 124, "name": "Қарабалық", "name_en": "Qarabalıq", "place": "town", "population": "11009", "name_kk": "Қарабалық", "name_ru": "Карабалык", "adm_type": "РЦ", "settlement_id": "S124" }, "geometry": { "type": "Point", "coordinates": [ 62.062511, 53.748184 ] } },
{ "type": "Feature", "properties": { "FID": 125, "name": "Рудный", "name_en": "Rudny", "place": "city", "population": "111908", "name_kk": "Рудный", "name_ru": "Рудный", "adm_type": "ГОЗ", "settlement_id": "S125" }, "geometry": { "type": "Point", "coordinates": [ 63.133488, 52.964458 ] } },
{ "type": "Feature", "properties": { "FID": 126, "name": "Фёдоровка", "name_en": "Fyodorovka", "place": "town", "population": "6922", "name_kk": "Федоров", "name_ru": "Фёдоровка", "adm_type": "РЦ", "settlement_id": "S126" }, "geometry": { "type": "Point", "coordinates": [ 62.699245, 53.636597 ] } },
{ "type": "Feature", "properties": { "FID": 127, "name": "Қарасу", "name_en": " ", "place": "village", "population": "3314", "name_kk": "Қарасу", "name_ru": "Карасу", "adm_type": "РЦ", "settlement_id": "S127" }, "geometry": { "type": "Point", "coordinates": [ 65.484154, 52.658371 ] } },
{ "type": "Feature", "properties": { "FID": 128, "name": "Аққыстау", "name_en": "Aqqystau", "place": "town", "population": "8879", "name_kk": "Аққыстау", "name_ru": "Аккистау", "adm_type": "РЦ", "settlement_id": "S128" }, "geometry": { "type": "Point", "coordinates": [ 51.009457, 47.224312 ] } },
{ "type": "Feature", "properties": { "FID": 129, "name": "Новоишимское", "name_en": " ", "place": "village", "population": "7474", "name_kk": "Новоишим", "name_ru": "Новоишимское", "adm_type": "РЦ", "settlement_id": "S129" }, "geometry": { "type": "Point", "coordinates": [ 66.7929531, 53.2025913 ] } },
{ "type": "Feature", "properties": { "FID": 130, "name": "Әйет", "name_en": " ", "place": "village", "population": "3990", "name_kk": "Әйет", "name_ru": "Айет", "adm_type": "РЦ", "settlement_id": "S130" }, "geometry": { "type": "Point", "coordinates": [ 62.52026, 52.837524 ] } },
{ "type": "Feature", "properties": { "FID": 131, "name": "Бақанас", "name_en": "Baqanas", "place": "town", "population": "6218", "name_kk": "Бақанас", "name_ru": "Баканас", "adm_type": "РЦ", "settlement_id": "S131" }, "geometry": { "type": "Point", "coordinates": [ 76.274628, 44.807812 ] } },
{ "type": "Feature", "properties": { "FID": 132, "name": "Ұлытау", "name_en": " ", "place": "village", "population": "2445", "name_kk": "Ұлытау", "name_ru": "Улытау", "adm_type": "РЦ", "settlement_id": "S132" }, "geometry": { "type": "Point", "coordinates": [ 67.0069227, 48.6536253 ] } },
{ "type": "Feature", "properties": { "FID": 133, "name": "Казталовка", "name_en": "Kaztal", "place": "town", "population": "5653", "name_kk": "Казталовка", "name_ru": "Казталовка", "adm_type": "РЦ", "settlement_id": "S133" }, "geometry": { "type": "Point", "coordinates": [ 48.689529, 49.769405 ] } },
{ "type": "Feature", "properties": { "FID": 134, "name": "Ұзынкөл", "name_en": " ", "place": "town", "population": "5089", "name_kk": "Ұзынкөл", "name_ru": "Узунколь", "adm_type": "РЦ", "settlement_id": "S134" }, "geometry": { "type": "Point", "coordinates": [ 65.3378245, 54.0375788 ] } },
{ "type": "Feature", "properties": { "FID": 135, "name": "Кеген", "name_en": "Kegen", "place": "town", "population": "8456", "name_kk": "Кеген", "name_ru": "Кеген", "adm_type": "РЦ", "settlement_id": "S135" }, "geometry": { "type": "Point", "coordinates": [ 79.22316, 43.021698 ] } },
{ "type": "Feature", "properties": { "FID": 136, "name": "Шетпе", "name_en": "Shetpe", "place": "town", "population": "17078", "name_kk": "Шетпе", "name_ru": "Шетпе", "adm_type": "РЦ", "settlement_id": "S136" }, "geometry": { "type": "Point", "coordinates": [ 52.1556413, 44.1413139 ] } },
{ "type": "Feature", "properties": { "FID": 137, "name": "Денисовка", "name_en": "Denisovka", "place": "town", "population": "5142", "name_kk": "Денисов", "name_ru": "Денисовка", "adm_type": "РЦ", "settlement_id": "S137" }, "geometry": { "type": "Point", "coordinates": [ 61.743259, 52.44194 ] } },
{ "type": "Feature", "properties": { "FID": 138, "name": "Маңғыстау", "name_en": "Mañğıstaw", "place": "town", "population": "35604", "name_kk": "Маңғыстау", "name_ru": "Мангистау", "adm_type": "РЦ", "settlement_id": "S138" }, "geometry": { "type": "Point", "coordinates": [ 51.304714, 43.692318 ] } },
{ "type": "Feature", "properties": { "FID": 139, "name": "Ақсу", "name_en": "Aksu", "place": "city", "population": "51728", "name_kk": "Ақсу", "name_ru": "Аксу", "adm_type": "ГОЗ", "settlement_id": "S139" }, "geometry": { "type": "Point", "coordinates": [ 76.9341133, 52.0354244 ] } },
{ "type": "Feature", "properties": { "FID": 140, "name": "Қарқаралы", "name_en": "Qarqaraly", "place": "town", "population": "9134", "name_kk": "Қарқаралы", "name_ru": "Каркаралинск", "adm_type": "РЦ", "settlement_id": "S140" }, "geometry": { "type": "Point", "coordinates": [ 75.4704514, 49.4124087 ] } },
{ "type": "Feature", "properties": { "FID": 141, "name": "Шымкент", "name_en": "Shymkent", "place": "city", "population": "1222055", "name_kk": " ", "name_ru": "Шымкент", "adm_type": "ГРЗ", "settlement_id": "S141" }, "geometry": { "type": "Point", "coordinates": [ 69.5883282, 42.3146962 ] } },
{ "type": "Feature", "properties": { "FID": 142, "name": "Қазығұрт", "name_en": "Qazyqurt", "place": "town", "population": "27539", "name_kk": "Қазығұрт", "name_ru": "Казыгурт", "adm_type": "РЦ", "settlement_id": "S142" }, "geometry": { "type": "Point", "coordinates": [ 69.385651, 41.758801 ] } },
{ "type": "Feature", "properties": { "FID": 143, "name": "Аққулы", "name_en": "Aqquly", "place": "village", "population": "2922", "name_kk": "Аққулы", "name_ru": "Аккулы", "adm_type": "РЦ", "settlement_id": "S143" }, "geometry": { "type": "Point", "coordinates": [ 77.7855099, 51.466458 ] } },
{ "type": "Feature", "properties": { "FID": 144, "name": "Шонжы", "name_en": " ", "place": "town", "population": "22317", "name_kk": "Шонжы", "name_ru": "Чунджа", "adm_type": "РЦ", "settlement_id": "S144" }, "geometry": { "type": "Point", "coordinates": [ 79.465935, 43.537277 ] } },
{ "type": "Feature", "properties": { "FID": 145, "name": "Талшық", "name_en": " ", "place": "village", "population": "3922", "name_kk": "Талшық", "name_ru": "Талшик", "adm_type": "РЦ", "settlement_id": "S145" }, "geometry": { "type": "Point", "coordinates": [ 71.8767545, 53.6433864 ] } },
{ "type": "Feature", "properties": { "FID": 146, "name": "Тереңкөл", "name_en": " ", "place": "village", "population": "8096", "name_kk": "Тереңкөл", "name_ru": "Теренколь", "adm_type": "РЦ", "settlement_id": "S146" }, "geometry": { "type": "Point", "coordinates": [ 76.0992584, 53.0666191 ] } },
{ "type": "Feature", "properties": { "FID": 147, "name": "Миялы", "name_en": " ", "place": "village", "population": "7859", "name_kk": "Миялы", "name_ru": "Миялы", "adm_type": "РЦ", "settlement_id": "S147" }, "geometry": { "type": "Point", "coordinates": [ 53.7905551, 48.8860423 ] } },
{ "type": "Feature", "properties": { "FID": 148, "name": "Торғай", "name_en": " ", "place": "town", "population": "4510", "name_kk": "Торғай", "name_ru": "Торгай", "adm_type": "РЦ", "settlement_id": "S148" }, "geometry": { "type": "Point", "coordinates": [ 63.491604, 49.632599 ] } },
{ "type": "Feature", "properties": { "FID": 149, "name": "Катонқарағай", "name_en": " ", "place": "town", "population": "3869", "name_kk": "Катонқарағай", "name_ru": "Катон-Карагай", "adm_type": "РЦ", "settlement_id": "S149" }, "geometry": { "type": "Point", "coordinates": [ 85.6063821, 49.1776001 ] } },
{ "type": "Feature", "properties": { "FID": 150, "name": "Ақсуат", "name_en": "Aqsuat", "place": "town", "population": "7219", "name_kk": "Ақсуат", "name_ru": "Аксуат", "adm_type": "РЦ", "settlement_id": "S150" }, "geometry": { "type": "Point", "coordinates": [ 82.8061386, 47.7620046 ] } },
{ "type": "Feature", "properties": { "FID": 151, "name": "Сарыөзек", "name_en": "Sarıözek", "place": "town", "population": "15024", "name_kk": "Сарыөзек", "name_ru": "Сарыозек", "adm_type": "РЦ", "settlement_id": "S151" }, "geometry": { "type": "Point", "coordinates": [ 77.974594, 44.362385 ] } },
{ "type": "Feature", "properties": { "FID": 152, "name": "Әйтеке би кенті", "name_en": "Ayteke Bi", "place": "town", "population": "46237", "name_kk": "Әйтеке би кенті", "name_ru": "Айтеке би", "adm_type": "РЦ", "settlement_id": "S152" }, "geometry": { "type": "Point", "coordinates": [ 62.153023, 45.844875 ] } },
{ "type": "Feature", "properties": { "FID": 153, "name": "Жосалы", "name_en": "Zhosaly", "place": "town", "population": "20269", "name_kk": "Жосалы", "name_ru": "Жосалы", "adm_type": "РЦ", "settlement_id": "S153" }, "geometry": { "type": "Point", "coordinates": [ 64.0849, 45.484024 ] } },
{ "type": "Feature", "properties": { "FID": 154, "name": "Құлан", "name_en": "Qulan", "place": "village", "population": "18572", "name_kk": "Құлан", "name_ru": "Кулан", "adm_type": "РЦ", "settlement_id": "S154" }, "geometry": { "type": "Point", "coordinates": [ 72.7082491, 42.9107803 ] } },
{ "type": "Feature", "properties": { "FID": 155, "name": "Талдықорған", "name_en": "Taldykorgan", "place": "city", "population": "169462", "name_kk": "Талдықорған", "name_ru": "Талдыкорган", "adm_type": "ОЦ", "settlement_id": "S155" }, "geometry": { "type": "Point", "coordinates": [ 78.3820494, 45.0177188 ] } },
{ "type": "Feature", "properties": { "FID": 156, "name": "Орал", "name_en": "Oral", "place": "city", "population": "256960", "name_kk": "Орал", "name_ru": "Уральск", "adm_type": "ОЦ", "settlement_id": "S156" }, "geometry": { "type": "Point", "coordinates": [ 51.3707863, 51.2040697 ] } },
{ "type": "Feature", "properties": { "FID": 157, "name": "Жезқазған", "name_en": "Jezqazğan", "place": "city", "population": "89283", "name_kk": "Жезқазған", "name_ru": "Жезказган", "adm_type": "ОЦ", "settlement_id": "S157" }, "geometry": { "type": "Point", "coordinates": [ 67.7145674, 47.80434 ] } },
{ "type": "Feature", "properties": { "FID": 158, "name": "Қостанай", "name_en": "Kostanay", "place": "city", "population": "268182", "name_kk": "Қостанай", "name_ru": "Костанай", "adm_type": "ОЦ", "settlement_id": "S158" }, "geometry": { "type": "Point", "coordinates": [ 63.632607, 53.2146604 ] } },
{ "type": "Feature", "properties": { "FID": 159, "name": "Нарынқол", "name_en": "Narynkol", "place": "town", "population": "5944", "name_kk": "Нарынқол", "name_ru": "Нарынкол", "adm_type": "РЦ", "settlement_id": "S159" }, "geometry": { "type": "Point", "coordinates": [ 80.177589, 42.729275 ] } },
{ "type": "Feature", "properties": { "FID": 160, "name": "Алматы", "name_en": "Almaty", "place": "city", "population": "2332400", "name_kk": "Алматы", "name_ru": "Алматы", "adm_type": "ГРЗ", "settlement_id": "S160" }, "geometry": { "type": "Point", "coordinates": [ 76.9457275, 43.2363924 ] } },
{ "type": "Feature", "properties": { "FID": 161, "name": "Петропавл", "name_en": "Petropavl", "place": "city", "population": "222703", "name_kk": "Петропавл", "name_ru": "Петропавловск", "adm_type": "ОЦ", "settlement_id": "S161" }, "geometry": { "type": "Point", "coordinates": [ 69.1334984, 54.8668104 ] } },
{ "type": "Feature", "properties": { "FID": 162, "name": "Павлодарское", "name_en": " ", "place": "village", "population": " ", "name_kk": "Павлодарское", "name_ru": "Павлодарское", "adm_type": "РЦ", "settlement_id": "S162" }, "geometry": { "type": "Point", "coordinates": [ 76.8613965, 52.3881139 ] } },
{ "type": "Feature", "properties": { "FID": 163, "name": "Мақаншы", "name_en": " ", "place": "town", "population": "11929", "name_kk": "Мақаншы", "name_ru": "Маканчи", "adm_type": "РЦ", "settlement_id": "S163" }, "geometry": { "type": "Point", "coordinates": [ 82.020632, 46.7903859 ] } },
{ "type": "Feature", "properties": { "FID": 164, "name": "Жансүгіров", "name_en": " ", "place": "town", "population": "9913", "name_kk": "Жансүгіров", "name_ru": "Жансугуров", "adm_type": "РЦ", "settlement_id": "S164" }, "geometry": { "type": "Point", "coordinates": [ 79.508598, 45.398308 ] } },
{ "type": "Feature", "properties": { "FID": 165, "name": "Сарыкөл", "name_en": " ", "place": "town", "population": "8488", "name_kk": "Сарыкөл", "name_ru": "Сарыколь", "adm_type": "РЦ", "settlement_id": "S165" }, "geometry": { "type": "Point", "coordinates": [ 65.546844, 53.317356 ] } },
{ "type": "Feature", "properties": { "FID": 166, "name": "Шортанды", "name_en": " ", "place": "town", "population": "6407", "name_kk": "Шортанды", "name_ru": "Шортанды", "adm_type": "РЦ", "settlement_id": "S166" }, "geometry": { "type": "Point", "coordinates": [ 70.9871618, 51.697429 ] } },
{ "type": "Feature", "properties": { "FID": 167, "name": "Саумалкөл", "name_en": "Saumalköl", "place": "village", "population": "11639", "name_kk": "Саумалкөл", "name_ru": "Саумалколь", "adm_type": "РЦ", "settlement_id": "S167" }, "geometry": { "type": "Point", "coordinates": [ 68.1060457, 53.2940231 ] } },
{ "type": "Feature", "properties": { "FID": 168, "name": "Ақсукент", "name_en": " ", "place": "village", "population": "34532", "name_kk": "Ақсукент", "name_ru": "Аксукент", "adm_type": "РЦ", "settlement_id": "S168" }, "geometry": { "type": "Point", "coordinates": [ 69.8252591, 42.4234022 ] } },
{ "type": "Feature", "properties": { "FID": 169, "name": "Аса", "name_en": "Asa", "place": "town", "population": "13164", "name_kk": "Аса", "name_ru": "Аса", "adm_type": "РЦ", "settlement_id": "S169" }, "geometry": { "type": "Point", "coordinates": [ 71.151062, 43.036049 ] } },
{ "type": "Feature", "properties": { "FID": 170, "name": "Жалағаш", "name_en": "Zhalagash", "place": "town", "population": "15725", "name_kk": "Жалағаш", "name_ru": "Жалагаш", "adm_type": "РЦ", "settlement_id": "S170" }, "geometry": { "type": "Point", "coordinates": [ 64.6809179, 45.0808963 ] } },
{ "type": "Feature", "properties": { "FID": 171, "name": "Жақсы", "name_en": "Zhaksy", "place": "village", "population": "4626", "name_kk": "Жақсы", "name_ru": "Жаксы", "adm_type": "РЦ", "settlement_id": "S171" }, "geometry": { "type": "Point", "coordinates": [ 67.31617, 51.908749 ] } },
{ "type": "Feature", "properties": { "FID": 172, "name": "Астраханка", "name_en": "Astrakhanka", "place": "village", "population": "6070", "name_kk": "Астраханка", "name_ru": "Астраханка", "adm_type": "РЦ", "settlement_id": "S172" }, "geometry": { "type": "Point", "coordinates": [ 69.7916595, 51.5291831 ] } },
{ "type": "Feature", "properties": { "FID": 173, "name": "Ақмол", "name_en": "Aqmol", "place": "village", "population": "13704", "name_kk": "Ақмол", "name_ru": "Акмол", "adm_type": "РЦ", "settlement_id": "S173" }, "geometry": { "type": "Point", "coordinates": [ 70.9811874, 51.0714722 ] } },
{ "type": "Feature", "properties": { "FID": 174, "name": "Зеренді", "name_en": "Zerendi", "place": "village", "population": "7162", "name_kk": "Зеренді", "name_ru": "Зеренда", "adm_type": "РЦ", "settlement_id": "S174" }, "geometry": { "type": "Point", "coordinates": [ 69.150291, 52.907032 ] } },
{ "type": "Feature", "properties": { "FID": 175, "name": "Абай", "name_en": " ", "place": "village", "population": "24101", "name_kk": "Абай", "name_ru": "Абай", "adm_type": "РЦ", "settlement_id": "S175" }, "geometry": { "type": "Point", "coordinates": [ 68.9522597, 41.3494551 ] } },
{ "type": "Feature", "properties": { "FID": 176, "name": "Кентау", "name_en": "Kentau", "place": "city", "population": "74659", "name_kk": "Кентау", "name_ru": "Кентау", "adm_type": "ГОЗ", "settlement_id": "S176" }, "geometry": { "type": "Point", "coordinates": [ 68.4996044, 43.5165919 ] } },
{ "type": "Feature", "properties": { "FID": 177, "name": "Текелі", "name_en": "Tekeli", "place": "city", "population": "30179", "name_kk": "Текелі", "name_ru": "Текели", "adm_type": "ГОЗ", "settlement_id": "S177" }, "geometry": { "type": "Point", "coordinates": [ 78.7629423, 44.8615202 ] } },
{ "type": "Feature", "properties": { "FID": 178, "name": "Жетісай", "name_en": "Jetisay", "place": "city", "population": "44105", "name_kk": "Жетісай", "name_ru": "Жетысай", "adm_type": "РЦ", "settlement_id": "S178" }, "geometry": { "type": "Point", "coordinates": [ 68.324677, 40.777134 ] } },
{ "type": "Feature", "properties": { "FID": 179, "name": "Шардара", "name_en": "Şardara", "place": "city", "population": "32107", "name_kk": "Шардара", "name_ru": "Шардара", "adm_type": "РЦ", "settlement_id": "S179" }, "geometry": { "type": "Point", "coordinates": [ 67.975266, 41.255856 ] } },
{ "type": "Feature", "properties": { "FID": 180, "name": "Лисаковск", "name_en": "Lisakovsk", "place": "city", "population": "31090", "name_kk": "Лисаковск", "name_ru": "Лисаковск", "adm_type": "ГОЗ", "settlement_id": "S180" }, "geometry": { "type": "Point", "coordinates": [ 62.489201, 52.545864 ] } },
{ "type": "Feature", "properties": { "FID": 181, "name": "Шахтинск", "name_en": "Shakhtinsk", "place": "city", "population": "38961", "name_kk": "Шахтинск", "name_ru": "Шахтинск", "adm_type": "ГОЗ", "settlement_id": "S181" }, "geometry": { "type": "Point", "coordinates": [ 72.5948421, 49.7056642 ] } },
{ "type": "Feature", "properties": { "FID": 182, "name": "Есіл", "name_en": "Esil", "place": "city", "population": "11484", "name_kk": "Есіл", "name_ru": "Есиль", "adm_type": "РЦ", "settlement_id": "S182" }, "geometry": { "type": "Point", "coordinates": [ 66.4092259, 51.960204 ] } },
{ "type": "Feature", "properties": { "FID": 183, "name": "Атбасар", "name_en": "Atbasar", "place": "city", "population": "31434", "name_kk": " ", "name_ru": "Атбасар", "adm_type": "РЦ", "settlement_id": "S183" }, "geometry": { "type": "Point", "coordinates": [ 68.3573356, 51.8097369 ] } },
{ "type": "Feature", "properties": { "FID": 184, "name": "Шемонаиха", "name_en": "Şemonaïxa", "place": "city", "population": "18365", "name_kk": "Шемонаиха", "name_ru": "Шемонаиха", "adm_type": "РЦ", "settlement_id": "S184" }, "geometry": { "type": "Point", "coordinates": [ 81.9155467, 50.6287241 ] } },
{ "type": "Feature", "properties": { "FID": 185, "name": "Макинск", "name_en": "Makinsk", "place": "city", "population": "18098", "name_kk": "Макинск", "name_ru": "Макинск", "adm_type": "РЦ", "settlement_id": "S185" }, "geometry": { "type": "Point", "coordinates": [ 70.418213, 52.63287 ] } },
{ "type": "Feature", "properties": { "FID": 186, "name": "Алатау", "name_en": " ", "place": "city", "population": "20418", "name_kk": "Алатау", "name_ru": "Алатау", "adm_type": "ГОЗ", "settlement_id": "S186" }, "geometry": { "type": "Point", "coordinates": [ 77.1094811, 43.6726327 ] } },
{ "type": "Feature", "properties": { "FID": 187, "name": "Ақкөл", "name_en": "Aqköl", "place": "city", "population": "16017", "name_kk": "Ақкөл", "name_ru": "Акколь", "adm_type": "РЦ", "settlement_id": "S187" }, "geometry": { "type": "Point", "coordinates": [ 70.9560123, 51.9956724 ] } },
{ "type": "Feature", "properties": { "FID": 188, "name": "Зайсан", "name_en": "Zaysan", "place": "city", "population": "18422", "name_kk": "Зайсан", "name_ru": "Зайсан", "adm_type": "РЦ", "settlement_id": "S188" }, "geometry": { "type": "Point", "coordinates": [ 84.8718159, 47.4672312 ] } },
{ "type": "Feature", "properties": { "FID": 189, "name": "Қосшы", "name_en": " ", "place": "city", "population": "55160", "name_kk": "Қосшы", "name_ru": "Косшы", "adm_type": "ГОЗ", "settlement_id": "S189" }, "geometry": { "type": "Point", "coordinates": [ 71.354946, 50.9754092 ] } },
{ "type": "Feature", "properties": { "FID": 190, "name": "Қаратау", "name_en": "Karatau", "place": "city", "population": "28422", "name_kk": "Қаратау", "name_ru": "Каратау", "adm_type": "РЦ", "settlement_id": "S190" }, "geometry": { "type": "Point", "coordinates": [ 70.46489, 43.176197 ] } },
{ "type": "Feature", "properties": { "FID": 191, "name": "Жаңатас", "name_en": " ", "place": "city", "population": "25693", "name_kk": "Жаңатас", "name_ru": "Жанатас", "adm_type": "РЦ", "settlement_id": "S191" }, "geometry": { "type": "Point", "coordinates": [ 69.7265539, 43.5567547 ] } },
{ "type": "Feature", "properties": { "FID": 192, "name": "Үшарал", "name_en": "Üşaral", "place": "city", "population": "21188", "name_kk": "Ушарал", "name_ru": "Учарал", "adm_type": "РЦ", "settlement_id": "S192" }, "geometry": { "type": "Point", "coordinates": [ 80.952568, 46.176125 ] } },
{ "type": "Feature", "properties": { "FID": 193, "name": "Қандыағаш", "name_en": "Kandyagash", "place": "city", "population": "35699", "name_kk": "Қандыағаш", "name_ru": "Кандыагаш", "adm_type": "РЦ", "settlement_id": "S193" }, "geometry": { "type": "Point", "coordinates": [ 57.4224647, 49.4718361 ] } },
{ "type": "Feature", "properties": { "FID": 194, "name": "Арал", "name_en": "Aral", "place": "city", "population": "37183", "name_kk": "Арал", "name_ru": "Арал", "adm_type": "РЦ", "settlement_id": "S194" }, "geometry": { "type": "Point", "coordinates": [ 61.661221, 46.797985 ] } },
{ "type": "Feature", "properties": { "FID": 195, "name": "Шалқар", "name_en": "Şalqar", "place": "city", "population": "27971", "name_kk": "Шалқар", "name_ru": "Шалкар", "adm_type": "РЦ", "settlement_id": "S195" }, "geometry": { "type": "Point", "coordinates": [ 59.6159216, 47.8273018 ] } },
{ "type": "Feature", "properties": { "FID": 196, "name": "Хромтау", "name_en": "Hromtau", "place": "city", "population": "30304", "name_kk": " ", "name_ru": "Хромтау", "adm_type": "РЦ", "settlement_id": "S196" }, "geometry": { "type": "Point", "coordinates": [ 58.435345, 50.256878 ] } },
{ "type": "Feature", "properties": { "FID": 197, "name": "Қаражал", "name_en": "Qarajal", "place": "city", "population": "8180", "name_kk": "Қаражал", "name_ru": "Каражал", "adm_type": "ГОЗ", "settlement_id": "S197" }, "geometry": { "type": "Point", "coordinates": [ 70.7936243, 48.0045008 ] } },
{ "type": "Feature", "properties": { "FID": 198, "name": "Приозёрск", "name_en": "Priozersk", "place": "city", "population": "11153", "name_kk": "Приозёрск", "name_ru": "Приозёрск", "adm_type": "ГОЗ", "settlement_id": "S198" }, "geometry": { "type": "Point", "coordinates": [ 73.6925172, 46.0308244 ] } },
{ "type": "Feature", "properties": { "FID": 199, "name": "Курчатов", "name_en": "Kurchatov", "place": "city", "population": "10348", "name_kk": "Курчатов", "name_ru": "Курчатов", "adm_type": "ГОЗ", "settlement_id": "S199" }, "geometry": { "type": "Point", "coordinates": [ 78.5486736, 50.7565343 ] } },
{ "type": "Feature", "properties": { "FID": 200, "name": "Державинск", "name_en": " ", "place": "city", "population": "7097", "name_kk": "Державинск", "name_ru": "Державинск", "adm_type": "РЦ", "settlement_id": "S200" }, "geometry": { "type": "Point", "coordinates": [ 66.3138516, 51.0990849 ] } },
{ "type": "Feature", "properties": { "FID": 201, "name": "Сергеевка", "name_en": "Sergeyevka", "place": "city", "population": "8112", "name_kk": " ", "name_ru": "Сергеевка", "adm_type": "РЦ", "settlement_id": "S201" }, "geometry": { "type": "Point", "coordinates": [ 67.415863, 53.880951 ] } },
{ "type": "Feature", "properties": { "FID": 202, "name": "Ақсай", "name_en": "Aksay", "place": "city", "population": "36034", "name_kk": "Ақсай", "name_ru": "Аксай", "adm_type": "РЦ", "settlement_id": "S202" }, "geometry": { "type": "Point", "coordinates": [ 53.011478, 51.173893 ] } },
{ "type": "Feature", "properties": { "FID": 203, "name": "Жітіқара", "name_en": "Jitiqara", "place": "city", "population": "34988", "name_kk": "Жітіқара", "name_ru": "Житикара", "adm_type": "РЦ", "settlement_id": "S203" }, "geometry": { "type": "Point", "coordinates": [ 61.1893675, 52.1856061 ] } },
{ "type": "Feature", "properties": { "FID": 204, "name": "Қаскелең", "name_en": "Qaskeleñ", "place": "city", "population": "84199", "name_kk": "Қаскелең", "name_ru": "Каскелен", "adm_type": "РЦ", "settlement_id": "S204" }, "geometry": { "type": "Point", "coordinates": [ 76.6303854, 43.1976867 ] } },
{ "type": "Feature", "properties": { "FID": 205, "name": "Мамлют", "name_en": "Mamlyut", "place": "city", "population": "6944", "name_kk": "Мамлют", "name_ru": "Мамлютка", "adm_type": "РЦ", "settlement_id": "S205" }, "geometry": { "type": "Point", "coordinates": [ 68.545174, 54.934776 ] } },
{ "type": "Feature", "properties": { "FID": 206, "name": "Булаев", "name_en": "Bulaev", "place": "city", "population": "8550", "name_kk": "Булаев", "name_ru": "Булаево", "adm_type": "РЦ", "settlement_id": "S206" }, "geometry": { "type": "Point", "coordinates": [ 70.447189, 54.896652 ] } },
{ "type": "Feature", "properties": { "FID": 207, "name": "Аягөз", "name_en": "Ayagöz", "place": "city", "population": "42010", "name_kk": "Аягөз", "name_ru": "Аягоз", "adm_type": "РЦ", "settlement_id": "S207" }, "geometry": { "type": "Point", "coordinates": [ 80.4365994, 47.9651211 ] } },
{ "type": "Feature", "properties": { "FID": 208, "name": "Үржар", "name_en": "Ürjar", "place": "town", "population": "17096", "name_kk": "Үржар", "name_ru": "Урджар", "adm_type": "РЦ", "settlement_id": "S208" }, "geometry": { "type": "Point", "coordinates": [ 81.6214218, 47.0960085 ] } },
{ "type": "Feature", "properties": { "FID": 209, "name": "Арыс", "name_en": "Arys", "place": "city", "population": "52123", "name_kk": "Арыс", "name_ru": "Арысь", "adm_type": "ГОЗ", "settlement_id": "S209" }, "geometry": { "type": "Point", "coordinates": [ 68.8134889, 42.4324695 ] } }
]
}
